NLLOC "./loc/vinti.19950422.154718.grid0" "LOCATED" "Location completed."
SIGNATURE "Anthony Lomax - Geosciences Azur   NLLoc:v4.00.0 02May2005 16h33m44"
COMMENT "1995 Vintimiglia Sequence (NonLinLoc Sample Location)"
GRID  101 101 21  -50.000000 -50.000000 0.000000  1.000000 1.000000 1.000000 PROB_DENSITY
SEARCH OCTREE nInitial 400 nEvaluated 10000 smallestNodeSide 0.312500/0.312500/0.156250
HYPOCENTER  x 3.281250 y 2.656250 z 10.234375  OT 16.182853  ix -1 iy -1 iz -1
GEOGRAPHIC  OT 1995 04 22  15 47 16.182853  Lat 43.773903 Long 7.540758 Depth 10.234375
QUALITY  Pmax 2.998e-05 MFmin 1.265812 MFmax 8.174994 RMS 0.283044 Nphs 13 Gap 231 Dist 12.797117 Mamp -9.90 0 Mdur -9.90 0
VPVSRATIO  VpVsRatio 1.767e+00  Npair 4  Diff 2.350e+00
STATISTICS  ExpectX 3.2807e+00 Y 1.7145e+00 Z 8.0566e+00  CovXX 2.77e-01 XY -1.09e-01 XZ 2.76e-01 YY 3.54e+00 YZ 3.57e+00 ZZ 9.90e+00 EllAz1  83.9 Dip1  -3.9 Len1  9.32e-01 Az2  352.2 Dip2  -23.8 Len2  2.63e+00 Len3  6.37e+00
STAT_GEOG  ExpectLat 43.765425 Long 7.540745 Depth 8.056623
TRANSFORM  LAMBERT RefEllipsoid Clarke-1880  LatOrig 43.750000  LongOrig 7.500000  FirstStdParal 43.199300  SecondStdParal 44.996100  RotCW 0.000000
FOCALMECH  Hyp  43.773903 7.540758 10.234375 Mech  0.0 0.0 0.0 mf  0.00 nObs 0
PHASE ID Ins Cmp On Pha  FM Date     HrMn   Sec     Err  ErrMag    Coda      Amp       Per      >   TTpred    Res       Weight    StaLoc(X  Y         Z)        SDist    SAzim  RAz   RDip  RQual    Tcorr 
RONE   ?    ?    ? P      ? 19950422 1547   19.2900 GAU  1.00e-01 -1.00e+00 -1.00e+00 -1.00e+00 >    3.0301    0.0770    1.0000    7.8887   14.5952   -0.3000   12.7971  21.10  21.1 122.1  9     0.0000
RONE   ?    ?    ? S      ? 19950422 1547   21.0200 GAU  1.00e-01 -1.00e+00 -1.00e+00 -1.00e+00 >    5.0907   -0.2535    1.0000    7.8887   14.5952   -0.3000   12.7971  21.10  21.1 122.1  9     0.0000
SBF    ?    ?    P G      ? 19950422 1547   19.8900 GAU  1.00e-01 -1.00e+00 -1.00e+00 -1.00e+00 >    3.1855    0.5216    1.0000   -5.2384   12.6113   -0.8470   13.1030 319.44 319.4 122.1  9     0.0000
NEGI   ?    ?    ? P      ? 19950422 1547   19.8000 GAU  1.00e-01 -1.00e+00 -1.00e+00 -1.00e+00 >    3.4785    0.0986    1.0000   16.3893   10.8705   -0.6400   15.4692  57.93  57.9 117.1  9     0.0400
NEGI   ?    ?    ? S      ? 19950422 1547   21.9400 GAU  1.00e-01 -1.00e+00 -1.00e+00 -1.00e+00 >    5.8440   -0.1268    1.0000   16.3893   10.8705   -0.6400   15.4692  57.93  57.9 117.1  9     0.0400
AURF   ?    ?    P G      ? 19950422 1547   20.6300 GAU  1.00e-01 -1.00e+00 -1.00e+00 -1.00e+00 >    4.4302    0.0170    1.0000  -13.8607   15.2716   -1.0400   21.2836 306.35 306.4 109.3  9     0.0000
CEPP   ?    ?    ? P      ? 19950422 1547   20.9600 GAU  1.00e-01 -1.00e+00 -1.00e+00 -1.00e+00 >    4.6863    0.0908    1.0000   19.7971   18.5085   -1.0800   22.8925  46.17  46.2 107.5  9     0.0000
CEPP   ?    ?    ? S      ? 19950422 1547   23.9700 GAU  1.00e-01 -1.00e+00 -1.00e+00 -1.00e+00 >    7.8730   -0.0859    1.0000   19.7971   18.5085   -1.0800   22.8925  46.17  46.2 107.5  9     0.0000
AUTN   ?    ?    P G      ? 19950422 1547   21.7300 GAU  1.00e-01 -1.00e+00 -1.00e+00 -1.00e+00 >    5.4029    0.1442    1.0000   -5.8149   27.2765   -2.0690   26.2469 339.72 339.7 105.0  9     0.0000
IMI    ?    ?    ? P      ? 19950422 1547   22.3300 GAU  1.00e-01 -1.00e+00 -1.00e+00 -1.00e+00 >    6.0975    0.0497    1.0000   31.5793   17.9062   -0.8400   32.1456  61.68  61.7  99.8  9     0.0000
IMI    ?    ?    ? S      ? 19950422 1547   26.4100 GAU  1.00e-01 -1.00e+00 -1.00e+00 -1.00e+00 >   10.2437   -0.0166    1.0000   31.5793   17.9062   -0.8400   32.1456  61.68  61.7  99.8  9     0.0000
MVIF   ?    ?    P G      ? 19950422 1547   21.9500 GAU  1.00e-01 -1.00e+00 -1.00e+00 -1.00e+00 >    6.5256   -0.7584    1.0000  -27.9180   16.3343   -1.4800   34.0658 293.67 293.7  98.6  9     0.0000
TOUF   ?    ?    P G      ? 19950422 1547   23.2500 GAU  1.00e-01 -1.00e+00 -1.00e+00 -1.00e+00 >    6.8249    0.2423    1.0000  -20.1791   29.3046   -1.8500   35.5038 318.64 318.6  97.8  9     0.0000
0666   ?    ?    e p      u 19950422 1547   18.7700 GAU  1.00e-01 -1.00e+00 -1.00e+00 -1.00e+00 >    0.0000    0.0000    0.0000    0.0000    0.0000    0.0000    0.0000   0.00   0.0   0.0  0     0.0000
0665   ?    ?    e p      u 19950422 1547   18.8200 GAU  1.00e-01 -1.00e+00 -1.00e+00 -1.00e+00 >    0.0000    0.0000    0.0000    0.0000    0.0000    0.0000    0.0000   0.00   0.0   0.0  0     0.0400
.obs   ?    ?    i p      u 19950422 1547   20.2100 GAU  1.00e-01 -1.00e+00 -1.00e+00 -1.00e+00 >    0.0000    0.0000    0.0000    0.0000    0.0000    0.0000    0.0000   0.00   0.0   0.0  0     0.0000
ENR    ?    ?    ? P      ? 19950422 1547   25.4700 GAU  1.00e-01 -1.00e+00 -1.00e+00 -1.00e+00 >    0.0000    0.0000    0.0000    0.0000    0.0000    0.0000    0.0000   0.00   0.0   0.0  0     0.0400
STV    ?    ?    ? P      ? 19950422 1547   26.1300 GAU  1.00e-01 -1.00e+00 -1.00e+00 -1.00e+00 >    0.0000    0.0000    0.0000    0.0000    0.0000    0.0000    0.0000   0.00   0.0   0.0  0     0.0000
FIN    ?    ?    ? P      ? 19950422 1547   29.0300 GAU  1.00e+00 -1.00e+00 -1.00e+00 -1.00e+00 >    0.0000    0.0000    0.0000    0.0000    0.0000    0.0000    0.0000   0.00   0.0   0.0  0     0.0000
FRF    ?    ?    ? G      ? 19950422 1547   30.4000 GAU  1.00e-01 -1.00e+00 -1.00e+00 -1.00e+00 >    0.0000    0.0000    0.0000    0.0000    0.0000    0.0000    0.0000   0.00   0.0   0.0  0     0.0000
PZZ    ?    ?    ? P      ? 19950422 1547   31.3900 GAU  1.00e+00 -1.00e+00 -1.00e+00 -1.00e+00 >    0.0000    0.0000    0.0000    0.0000    0.0000    0.0000    0.0000   0.00   0.0   0.0  0     0.0400
ENR    ?    ?    ? S      ? 19950422 1547   31.4900 GAU  1.00e-01 -1.00e+00 -1.00e+00 -1.00e+00 >    0.0000    0.0000    0.0000    0.0000    0.0000    0.0000    0.0000   0.00   0.0   0.0  0     0.0000
STV    ?    ?    ? S      ? 19950422 1547   32.4500 GAU  1.00e-01 -1.00e+00 -1.00e+00 -1.00e+00 >    0.0000    0.0000    0.0000    0.0000    0.0000    0.0000    0.0000   0.00   0.0   0.0  0     0.0400
LMR    ?    ?    ? G      ? 19950422 1547   33.8000 GAU  1.00e-01 -1.00e+00 -1.00e+00 -1.00e+00 >    0.0000    0.0000    0.0000    0.0000    0.0000    0.0000    0.0000   0.00   0.0   0.0  0     0.0000
LRG    ?    ?    ? G      ? 19950422 1547   34.4000 GAU  1.00e-01 -1.00e+00 -1.00e+00 -1.00e+00 >    0.0000    0.0000    0.0000    0.0000    0.0000    0.0000    0.0000   0.00   0.0   0.0  0     0.0000
FIN    ?    ?    ? S      ? 19950422 1547   37.3200 GAU  1.00e+00 -1.00e+00 -1.00e+00 -1.00e+00 >    0.0000    0.0000    0.0000    0.0000    0.0000    0.0000    0.0000   0.00   0.0   0.0  0     0.0000
PZZ    ?    ?    ? S      ? 19950422 1547   41.6400 GAU  1.00e+00 -1.00e+00 -1.00e+00 -1.00e+00 >    0.0000    0.0000    0.0000    0.0000    0.0000    0.0000    0.0000   0.00   0.0   0.0  0     0.0000
END_PHASE
SCATTER Nsamples 1045
   3.9774    1.8768   12.2852 -6.41e+00
   4.3152    0.0276    9.0806 -6.41e+00
   2.5972    0.1045    9.0704 -6.43e+00
   4.1407    3.9196   11.3034 -6.44e+00
   3.3740    3.2998    0.9325 -8.53e+00
   3.1821    5.0040   10.5941 -6.45e+00
   4.0364    2.9022   12.7455 -6.46e+00
   4.3149    0.2628    9.8316 -6.46e+00
   2.5654    5.4972   12.1851 -6.47e+00
   3.4003   -1.6929    5.4365 -6.47e+00
   2.8892    2.9055    5.4089 -6.49e+00
   2.6558   -0.6587    6.2058 -6.50e+00
   2.7348    4.2187    7.8819 -6.50e+00
   3.7510   -1.7883    5.4288 -8.61e+00
   2.5436    3.9323   12.7623 -6.54e+00
   4.5239   -1.3472    6.6530 -8.63e+00
   3.1176    1.8417   11.4335 -6.56e+00
   3.1458   -3.4082    3.4970 -8.66e+00
   3.6284    3.6123    1.9509 -8.66e+00
   3.4238   -0.4222    9.7970 -6.59e+00
   3.8138    4.0346   12.5157 -6.59e+00
   4.1679    0.5642   10.4349 -6.61e+00
   3.9210    4.1858   14.2054 -8.70e+00
   3.1017   -0.4502    8.4213 -6.62e+00
   2.6291   -1.0805    1.8039 -6.62e+00
   3.8243    3.3445   13.0822 -6.64e+00
   3.9826    1.6045    7.9122 -6.65e+00
   3.7795    4.0307   10.8611 -6.66e+00
   4.3230   -0.0898    7.7404 -6.67e+00
   3.5815    1.8098    3.2322 -6.70e+00
   4.3633   -0.3638    7.0686 -6.71e+00
   2.5195   -1.5950    3.1789 -6.71e+00
   2.9198    1.0925   10.8419 -6.71e+00
   3.1509    4.2239    8.1930 -6.71e+00
   3.8695    0.1350    6.5771 -6.72e+00
   2.7258    3.1713    6.3008 -6.72e+00
   3.4143    4.6099    9.1768 -6.72e+00
   3.7301    5.1150   13.2041 -6.72e+00
   4.2528    0.6538   11.8501 -6.72e+00
   3.5801   -0.6834    1.5505 -6.73e+00
   3.6546    4.2538   13.6171 -6.73e+00
   4.6873   -1.2855    7.6229 -8.82e+00
   3.7073    6.0623   12.8032 -6.74e+00
   3.5553   -1.4193    6.8300 -6.76e+00
   4.0114   -0.4173    8.9492 -6.77e+00
   2.9311   -1.7896    3.8220 -6.79e+00
   4.0438    1.2835    7.5513 -6.80e+00
   3.9449    4.3760   12.4809 -6.83e+00
   3.2495    1.2735    2.6354 -6.86e+00
   2.9930    5.1863   12.6617 -6.86e+00
   3.2340   -0.7614    8.9253 -6.87e+00
   4.0289   -0.4593    9.4768 -6.89e+00
   3.1113   -1.7585    4.4504 -6.90e+00
   2.7389    4.0594    7.3685 -6.90e+00
   4.3506    0.8089    6.8438 -6.91e+00
   3.9334    0.5174    6.1971 -6.91e+00
   3.5181    6.2104   13.0929 -6.91e+00
   2.9040    2.8539   12.5913 -6.91e+00
   2.7409    5.8555   11.8855 -6.93e+00
   4.6833    1.7164   14.3207 -9.01e+00
   3.3306    2.7779   10.4431 -4.86e+00
   3.3496    2.6309   10.0027 -4.86e+00
   3.1798    2.4874    9.4348 -4.86e+00
   3.2937    2.7670   10.5832 -4.87e+00
   4.3649    1.1366   11.9116 -6.95e+00
   3.3112    2.5850    9.8498 -4.87e+00
   3.4334    2.2084   10.2074 -4.87e+00
   3.2833    1.8854    9.5844 -4.87e+00
   3.2652    2.3365    9.3122 -4.88e+00
   3.2730    2.2376   10.4442 -4.89e+00
   3.2069    2.1354    9.8238 -4.89e+00
   3.4658    1.3260    1.4360 -6.97e+00
   3.1752    3.0280   10.8440 -4.89e+00
   1.8940    1.7931    6.1880 -6.97e+00
   3.3518    2.1042    8.9839 -4.90e+00
   3.3128    3.0414   10.0623 -4.90e+00
   3.4063    2.4323    9.0950 -4.90e+00
   3.3080    1.9192    8.8238 -4.91e+00
   3.2974    2.1885   10.4897 -4.91e+00
   3.2943    1.8540    8.7250 -4.91e+00
   4.1369   -1.0977    6.7883 -6.99e+00
   3.4280    1.6582    8.9374 -4.91e+00
   3.3262    2.8074   10.8518 -4.91e+00
   3.3920    1.5812    8.5512 -4.91e+00
   3.9703    3.8081   13.2030 -7.00e+00
   3.2535    3.0602   11.0070 -4.92e+00
   3.3842    3.0860    9.8534 -4.92e+00
   2.8334    3.7184   12.9788 -7.00e+00
   2.9438   -0.2593    8.8830 -7.00e+00
   3.2120    3.1391   10.3933 -4.92e+00
   2.1385    1.2238    4.7167 -7.01e+00
   3.3848    2.5421    9.3546 -4.94e+00
   3.3052    1.5536    8.2957 -4.94e+00
   3.3622    1.4157    8.5343 -4.94e+00
   3.1867    1.5475    8.1670 -4.94e+00
   3.2203    1.6414    9.5350 -4.94e+00
   3.2876    1.9327   10.2061 -4.94e+00
   3.1514    3.2106   10.2708 -4.94e+00
   3.3755    1.3692    8.0057 -4.95e+00
   3.1492    2.2816    8.8775 -4.95e+00
   3.2929    1.4708    8.8654 -4.96e+00
   3.2418    3.4206   11.1417 -4.96e+00
   3.0855   -1.4058    5.1324 -7.04e+00
   2.4203    2.2675    7.9579 -7.04e+00
   3.3983    3.0199    9.5908 -4.96e+00
   3.3474    1.5576    7.8159 -4.96e+00
   3.3609    5.1621   13.5820 -7.05e+00
   3.3630    2.5852    9.1559 -4.97e+00
   3.7884    4.4778   11.1158 -7.06e+00
   3.7767   -1.1837    5.5819 -7.06e+00
   3.4134    1.5912    7.8565 -4.99e+00
   3.4203    1.1201    7.7782 -5.00e+00
   3.7070    2.5058   10.4838 -5.00e+00
   3.3447    1.0701    7.6394 -5.00e+00
   4.1377    0.5410   11.5410 -7.08e+00
   4.1046   -0.8857    7.8527 -7.09e+00
   3.1157    2.7055    4.2233 -7.09e+00
   3.3421    2.6295   11.1043 -5.01e+00
   1.8914    0.8757    6.5150 -7.09e+00
   3.2129    1.2260    8.5885 -5.01e+00
   3.4750    2.1943   10.1073 -5.02e+00
   3.5938    0.3379    0.6678 -7.10e+00
   2.1065    1.6092    4.5737 -7.10e+00
   3.4659    2.4493    4.2333 -7.10e+00
   3.1345    2.2309   11.0377 -5.02e+00
   3.0482    2.1363    8.6623 -5.03e+00
   4.3395    0.0670    5.3639 -7.11e+00
   3.1940    3.4543   11.3227 -5.03e+00
   3.5741    2.9271   10.7303 -5.03e+00
   3.2005    1.8019   10.0454 -5.03e+00
   3.2519    1.0089    8.6800 -5.03e+00
   2.8412    1.9116    8.7987 -5.03e+00
   3.0471    1.8281    8.3857 -5.03e+00
   2.2913    2.1338    5.9858 -7.11e+00
   3.5464    2.3636    9.8873 -5.03e+00
   2.0507    0.3417    1.9874 -7.11e+00
   1.9027    0.2513    2.4862 -7.12e+00
   3.5324    2.1846   10.0904 -5.04e+00
   3.1038    1.8596    7.8173 -5.04e+00
   3.6367    2.8183   10.9520 -5.04e+00
   3.5425    1.9752    9.8685 -5.04e+00
   3.2635    2.9379    9.3382 -5.04e+00
   3.4751    2.0283   10.3297 -5.04e+00
   2.8217    2.3864    8.7076 -5.05e+00
   3.3939    2.7721    8.8800 -5.05e+00
   2.9799    2.6460    9.4682 -5.05e+00
   3.0157    2.0450    9.1046 -5.05e+00
   3.4769    1.5985   12.9560 -7.13e+00
   2.4514    3.0085    8.1965 -7.13e+00
   3.4129    1.4056    7.2133 -5.05e+00
   4.0554   -1.1284    4.7093 -7.13e+00
   3.3887    1.1440    7.0991 -5.05e+00
   3.3351    1.1696    8.8016 -5.06e+00
   3.2834    3.3714   11.4919 -5.06e+00
   3.0365    1.4519    7.7633 -5.06e+00
   3.1194    1.4475    7.5713 -5.06e+00
   3.7062    2.9178   10.4619 -5.06e+00
   3.1519    0.7318    7.4056 -5.06e+00
   3.0043    1.7384    7.5986 -5.06e+00
   3.3588    0.7891    7.6921 -5.06e+00
   2.8336    5.4639   13.0291 -7.15e+00
   3.2120    0.7648    7.2644 -5.07e+00
   3.3944    0.8730    7.8759 -5.07e+00
   3.8805   -0.8005    8.2452 -7.15e+00
   3.2148    3.7479   11.4695 -5.07e+00
   2.2021    2.8825    8.4522 -7.16e+00
   4.0341    2.7252    8.7293 -7.16e+00
   3.5204    2.0129    9.4307 -5.08e+00
   3.1437    0.8238    8.0222 -5.08e+00
   3.5513    3.1583   10.9389 -5.08e+00
   3.6407    1.8430    9.7239 -5.08e+00
   3.4191    0.9408    8.9807 -5.08e+00
   3.5700    3.2871   10.8163 -5.08e+00
   3.4924    2.1572   10.7331 -5.08e+00
   3.3154    1.6123    7.3605 -5.09e+00
   2.8933    1.9754    9.4747 -5.09e+00
   3.4273    2.7123    8.5952 -5.09e+00
   3.7112    1.6020    9.5238 -5.09e+00
   3.0743    2.8185    9.7230 -5.09e+00
   3.4390    2.9050   10.2100 -5.09e+00
   3.2643    2.1505   10.8982 -5.09e+00
   3.2361    3.7990   13.8971 -7.17e+00
   3.1130    2.8747   10.1612 -5.09e+00
   3.0393    1.3710   11.9302 -7.18e+00
   3.0692    2.5038   10.0603 -5.10e+00
   2.9114    2.8414   10.1309 -5.10e+00
   3.6294    3.3220   10.7564 -5.10e+00
   3.9168   -0.5134    4.6039 -7.18e+00
   3.2429    3.7022   10.1050 -5.10e+00
   2.9267    1.7630    7.2487 -5.10e+00
   2.9526    1.1760    7.1282 -5.11e+00
   1.9976    2.5046    7.4412 -7.19e+00
   3.4766    1.6367   10.1632 -5.11e+00
   3.2420   -1.8969    5.0528 -7.19e+00
   2.9914    1.6604    9.1559 -5.12e+00
   3.2778    1.8705    7.1879 -5.13e+00
   3.3560    3.4885   11.6617 -5.13e+00
   2.9298    3.2097   10.2695 -5.13e+00
   3.3052    1.1559    6.5807 -5.13e+00
   2.6353    2.1575    1.4212 -7.21e+00
   2.9099    1.0960    6.6011 -5.14e+00
   3.1409    1.0546    9.2891 -5.14e+00
   4.2535    0.3996    5.2760 -7.22e+00
   3.1563    1.5195    9.9173 -5.14e+00
   3.1435    1.7262   10.6107 -5.14e+00
   2.8135    2.3618   10.0526 -5.14e+00
   3.5339    2.8735   11.4768 -5.14e+00
   3.3178    2.0237    7.5034 -5.15e+00
   2.9577    2.0773    7.4486 -5.15e+00
   3.0744    2.6772   10.4749 -5.15e+00
   3.2546    3.6385    9.9095 -5.15e+00
   2.7532    5.2068    9.3202 -7.23e+00
   1.5528    2.7886    5.4034 -9.31e+00
   4.2506   -0.8006    8.5847 -7.23e+00
   2.8624    1.0324    6.4134 -5.15e+00
   3.6537    2.5655    9.5381 -5.15e+00
   2.8163    1.9462    9.8086 -5.15e+00
   4.2561    2.2851   13.3222 -7.23e+00
   2.8293    2.4941    7.8608 -5.15e+00
   3.7144    1.4982    9.1298 -5.15e+00
   2.9531    1.3558    6.5640 -5.15e+00
   3.5618    2.6973    5.4042 -7.23e+00
   3.7276    1.7474    8.9400 -5.15e+00
   3.5692    2.3257    9.2546 -5.16e+00
   3.3347    0.5426    6.8485 -5.16e+00
   3.2509    2.8129   11.6353 -5.16e+00
   2.8224    2.4282   10.1632 -5.16e+00
   3.6012    5.7447   10.3881 -7.25e+00
   2.9046    1.1102    8.1509 -5.17e+00
   3.7153    2.3061    3.9492 -7.25e+00
   3.4563    3.0746    9.9849 -5.17e+00
   3.0359    0.8375    6.6927 -5.17e+00
   3.3263    1.0524    9.5101 -5.17e+00
   3.2757    0.4723    6.5025 -5.17e+00
   3.4475    2.2774   11.3866 -5.18e+00
   3.1214    3.4418   10.6134 -5.18e+00
   3.0506    2.1650    7.3207 -5.18e+00
   2.8877    3.4935   10.7193 -5.18e+00
   2.8473    6.2260   12.7062 -7.27e+00
   3.6201   -1.3804    8.0106 -7.27e+00
   3.0339    1.0253    6.1558 -5.19e+00
   3.2822    3.5741   11.7748 -5.19e+00
   2.9543    2.3593   10.3604 -5.19e+00
   3.4992    1.6561    8.6175 -5.19e+00
   2.8363    3.1520   10.9946 -5.19e+00
   3.0767    3.5189   10.9056 -5.19e+00
   3.1397    2.9301    8.8160 -5.19e+00
   3.6686    1.3327    8.4999 -5.20e+00
   3.7342    3.3367   10.3001 -5.20e+00
   2.8895    0.7093    6.0956 -5.20e+00
   1.9288    0.9705    7.2349 -7.28e+00
   3.5824    2.8608   11.6605 -5.20e+00
   3.2772    0.4220    7.9393 -5.20e+00
   3.3282    0.6039    6.1079 -5.20e+00
   3.6309    6.5796   12.0502 -7.28e+00
   3.2384    0.7652    8.8844 -5.21e+00
   2.9422    3.6836   10.2080 -5.21e+00
   3.1146    0.6833    7.5685 -5.21e+00
   3.1556    6.8121   12.3408 -7.29e+00
   3.4374    1.0812    9.6726 -5.22e+00
   3.6697    1.9855   11.2112 -5.22e+00
   2.9026    1.7685    9.5503 -5.22e+00
   2.8421    4.7316    8.0077 -7.30e+00
   4.2084    1.7566    6.7459 -7.31e+00
   4.1465    1.4737   13.0646 -7.31e+00
   3.3630    4.1503   11.3079 -5.23e+00
   3.6015    1.5221   10.2323 -5.23e+00
   2.8921    3.3555    9.2602 -5.23e+00
   2.9328    1.9722   10.0563 -5.23e+00
   3.1646    2.5281    8.2313 -5.24e+00
   3.5854    1.5025    8.2065 -5.24e+00
   3.3474    4.0549   11.7207 -5.24e+00
   3.5810    1.0692    9.4144 -5.25e+00
   3.1910    3.5531    9.5678 -5.25e+00
   3.4932    3.3232   10.0625 -5.25e+00
   3.8007    1.1101    5.7634 -7.33e+00
   3.3769    0.4331    8.1295 -5.25e+00
   3.3024    4.1542   11.4505 -5.25e+00
   3.4877    1.5684    8.3046 -5.25e+00
   1.9317    3.0022    9.5375 -7.33e+00
   3.0451    3.8516    5.2041 -9.41e+00
   2.2906    1.8673    2.4784 -7.34e+00
   3.2895    2.4424   11.4160 -5.26e+00
   2.8869    3.5122   11.1255 -5.26e+00
   3.5572    2.6430    9.3704 -5.26e+00
   3.7194    1.0587    8.0122 -5.26e+00
   3.6238    6.8357   11.8509 -7.34e+00
   3.1131    1.6365    6.4193 -5.26e+00
   2.9206    1.1904    5.6988 -5.26e+00
   3.8011    2.8260   13.6620 -7.34e+00
   3.7318    2.2073    9.0006 -5.26e+00
   3.1686    0.0207    6.6922 -5.26e+00
   3.0537    0.5282    5.8427 -5.27e+00
   3.6546    1.1023    9.5648 -5.27e+00
   3.5277    1.4760    8.0428 -5.27e+00
   3.3994    1.3047   10.3134 -5.27e+00
   3.1138    1.6825    9.8253 -5.27e+00
   3.1913    1.0334    9.7738 -5.27e+00
   3.3947    0.2922    6.1399 -5.27e+00
   3.0499    0.4966    5.7008 -5.27e+00
   3.6527   -2.4861    5.6568 -7.36e+00
   3.5802    1.0689    7.8814 -5.28e+00
   3.1441    3.1738   11.9741 -5.28e+00
   2.8799    0.7205    8.0514 -5.28e+00
   3.4141    0.6500    9.0826 -5.28e+00
   3.1946    0.5821    8.4168 -5.28e+00
   3.0454    0.6178    5.4411 -5.29e+00
   3.5922    0.6980    8.2106 -5.30e+00
   3.6373    0.6566    8.0978 -5.30e+00
   3.3197    0.5508    5.3433 -5.30e+00
   3.8933   -0.1938    3.6538 -7.38e+00
   3.6868    1.0968    7.7859 -5.30e+00
   3.5095    3.9163   11.0581 -5.30e+00
   3.4807    2.4763    8.8882 -5.30e+00
   4.3259    3.0235    8.3333 -7.39e+00
   3.0576    1.0669    8.8148 -5.31e+00
   3.2124    3.6258    9.4056 -5.31e+00
   2.8942    3.7123    9.5521 -5.31e+00
   3.3683    1.6986    6.6540 -5.31e+00
   3.6965    2.6566   11.7756 -5.31e+00
   2.9952    3.8150   11.1975 -5.32e+00
   3.7771    4.6619   14.4291 -9.48e+00
   3.1584    0.3354    8.5008 -5.32e+00
   2.4339   -0.5990    2.9828 -7.40e+00
   3.2228    1.5934   11.0644 -5.32e+00
   3.3056    0.2593    5.3844 -5.32e+00
   3.3305    1.4448   10.6185 -5.32e+00
