NLLOC "./loc/vinti.19950423.012763.grid0" "LOCATED" "Location completed."
SIGNATURE "Anthony Lomax - Geosciences Azur   NLLoc:v4.00.0 02May2005 16h33m44"
COMMENT "1995 Vintimiglia Sequence (NonLinLoc Sample Location)"
GRID  101 101 21  -50.000000 -50.000000 0.000000  1.000000 1.000000 1.000000 PROB_DENSITY
SEARCH OCTREE nInitial 400 nEvaluated 10008 smallestNodeSide 0.312500/0.312500/0.156250
HYPOCENTER  x 5.468750 y 4.218750 z 0.078125  OT 6.937040  ix -1 iy -1 iz -1
GEOGRAPHIC  OT 1995 04 23  01 28  6.937040  Lat 43.787954 Long 7.567946 Depth 0.078125
QUALITY  Pmax 5.137e-02 MFmin 0.734680 MFmax 6.089184 RMS 0.192635 Nphs 11 Gap 249 Dist 10.654864 Mamp -9.90 0 Mdur -9.90 0
VPVSRATIO  VpVsRatio 1.670e+00  Npair 3  Diff 1.110e+00
STATISTICS  ExpectX 5.6550e+00 Y 3.6780e+00 Z 6.0525e+00  CovXX 6.19e-01 XY -2.02e-01 XZ 7.03e-01 YY 3.67e+00 YZ 2.20e+00 ZZ 1.17e+01 EllAz1  82.8 Dip1  -5.0 Len1  1.37e+00 Az2  351.6 Dip2  -13.6 Len2  3.34e+00 Len3  6.59e+00
STAT_GEOG  ExpectLat 43.783085 Long 7.570255 Depth 6.052492
TRANSFORM  LAMBERT RefEllipsoid Clarke-1880  LatOrig 43.750000  LongOrig 7.500000  FirstStdParal 43.199300  SecondStdParal 44.996100  RotCW 0.000000
FOCALMECH  Hyp  43.787954 7.567946 0.078125 Mech  0.0 0.0 0.0 mf  0.00 nObs 0
PHASE ID Ins Cmp On Pha  FM Date     HrMn   Sec     Err  ErrMag    Coda      Amp       Per      >   TTpred    Res       Weight    StaLoc(X  Y         Z)        SDist    SAzim  RAz   RDip  RQual    Tcorr 
RONE   ?    ?    ? P      ? 19950423 0128    9.4100 GAU  1.00e-01 -1.00e+00 -1.00e+00 -1.00e+00 >    2.5604   -0.0875    1.3750    7.8887   14.5952   -0.3000   10.6549  13.13  13.1  51.0  7     0.0000
RONE   ?    ?    ? S      ? 19950423 0128   11.3000 GAU  1.00e-01 -1.00e+00 -1.00e+00 -1.00e+00 >    4.3015    0.0615    1.3750    7.8887   14.5952   -0.3000   10.6549  13.13  13.1  51.0  7     0.0000
NEGI   ?    ?    ? P      ? 19950423 0128    9.9700 GAU  1.00e-01 -1.00e+00 -1.00e+00 -1.00e+00 >    2.9817    0.0113    1.3750   16.3893   10.8705   -0.6400   12.7869  58.65  58.7  43.1  9     0.0400
NEGI   ?    ?    ? S      ? 19950423 0128   12.2800 GAU  1.00e-01 -1.00e+00 -1.00e+00 -1.00e+00 >    5.0092    0.2938    1.3750   16.3893   10.8705   -0.6400   12.7869  58.65  58.7  43.1  9     0.0400
SBF    ?    ?    i p      d 19950423 0128    9.9800 GAU  1.00e-01 -1.00e+00 -1.00e+00 -1.00e+00 >    3.1565   -0.1135    1.3750   -5.2384   12.6113   -0.8470   13.6043 308.09 308.1  42.6  9     0.0000
CEPP   ?    ?    ? P      ? 19950423 0128   11.0000 GAU  1.00e-01 -1.00e+00 -1.00e+00 -1.00e+00 >    4.3057   -0.2427    1.3750   19.7971   18.5085   -1.0800   20.2360  45.08  45.1  41.8 10     0.0000
CEPP   ?    ?    ? S      ? 19950423 0128   14.0000 GAU  1.00e-01 -1.00e+00 -1.00e+00 -1.00e+00 >    7.2336   -0.2106    1.3750   19.7971   18.5085   -1.0800   20.2360  45.08  45.1  41.8 10     0.0400
AURF   ?    ?    ? p      ? 19950423 0128   12.1100 GAU  1.00e+05 -1.00e+00 -1.00e+00 -1.00e+00 >    4.6369    0.4960    0.0000  -13.8607   15.2716   -1.0400   22.2664 299.76 299.8  41.8 10     0.0400
AUTN   ?    ?    ? p      ? 19950423 0128    8.4000 GAU  1.00e+05 -1.00e+00 -1.00e+00 -1.00e+00 >    5.3954   -3.9324    0.0000   -5.8149   27.2765   -2.0690   25.6707 333.92 333.9  41.8 10     0.0000
MVIF   ?    ?    ? p      ? 19950423 0128   15.0500 GAU  1.00e+05 -1.00e+00 -1.00e+00 -1.00e+00 >    6.9267    1.1863    0.0000  -27.9180   16.3343   -1.4800   35.5170 289.95 289.9  41.8 10     0.0000
TOUF   ?    ?    P G      ? 19950423 0128   14.2800 GAU  1.00e-01 -1.00e+00 -1.00e+00 -1.00e+00 >    7.0552    0.2878    1.3750  -20.1791   29.3046   -1.8500   35.8763 314.37 314.4  41.8 10     0.0000
0522   ?    ?    i p      d 19950423 0127   63.7200 GAU  1.00e+05 -1.00e+00 -1.00e+00 -1.00e+00 >    0.0000    0.0000    0.0000    0.0000    0.0000    0.0000    0.0000   0.00   0.0   0.0  0     0.0000
0665   ?    ?    e p      . 19950423 0127   66.7400 GAU  1.00e+05 -1.00e+00 -1.00e+00 -1.00e+00 >    0.0000    0.0000    0.0000    0.0000    0.0000    0.0000    0.0000   0.00   0.0   0.0  0     0.0000
0669   ?    ?    ? p      ? 19950423 0127   67.3300 GAU  1.00e+05 -1.00e+00 -1.00e+00 -1.00e+00 >    0.0000    0.0000    0.0000    0.0000    0.0000    0.0000    0.0000   0.00   0.0   0.0  0     0.0000
0666   ?    ?    i p      u 19950423 0127   68.8200 GAU  1.00e-01 -1.00e+00 -1.00e+00 -1.00e+00 >    0.0000    0.0000    0.0000    0.0000    0.0000    0.0000    0.0000   0.00   0.0   0.0  0     0.0400
.obs   ?    ?    i p      d 19950423 0127   70.3400 GAU  1.00e-01 -1.00e+00 -1.00e+00 -1.00e+00 >    0.0000    0.0000    0.0000    0.0000    0.0000    0.0000    0.0000   0.00   0.0   0.0  0     0.0400
0667   ?    ?    e p      . 19950423 0127   72.5600 GAU  1.00e+05 -1.00e+00 -1.00e+00 -1.00e+00 >    0.0000    0.0000    0.0000    0.0000    0.0000    0.0000    0.0000   0.00   0.0   0.0  0     0.0000
PGF    ?    ?    ? p      ? 19950423 0127   78.1000 GAU  1.00e+05 -1.00e+00 -1.00e+00 -1.00e+00 >    0.0000    0.0000    0.0000    0.0000    0.0000    0.0000    0.0000   0.00   0.0   0.0  0     0.0000
FRF    ?    ?    ? G      ? 19950423 0128   20.4000 GAU  1.00e-01 -1.00e+00 -1.00e+00 -1.00e+00 >    0.0000    0.0000    0.0000    0.0000    0.0000    0.0000    0.0000   0.00   0.0   0.0  0     0.0000
LMR    ?    ?    ? G      ? 19950423 0128   23.5000 GAU  1.00e-01 -1.00e+00 -1.00e+00 -1.00e+00 >    0.0000    0.0000    0.0000    0.0000    0.0000    0.0000    0.0000   0.00   0.0   0.0  0     0.0400
LRG    ?    ?    ? G      ? 19950423 0128   24.5000 GAU  1.00e-01 -1.00e+00 -1.00e+00 -1.00e+00 >    0.0000    0.0000    0.0000    0.0000    0.0000    0.0000    0.0000   0.00   0.0   0.0  0     0.0000
END_PHASE
SCATTER Nsamples 1015
   4.6183    2.5698    3.7870  7.11e-01
   5.9669    1.3188    4.5364  7.10e-01
   6.6062    3.6201    0.3849  7.08e-01
   6.7494    2.7189    8.2191  7.03e-01
   5.7125    2.9268    3.9209  7.01e-01
   4.8766    2.7953    3.3691  7.01e-01
   6.5968    3.2185    8.1148  6.95e-01
   4.9904    3.6509    2.9091  6.95e-01
   5.0962    4.3766    4.5000  6.94e-01
   7.0949    0.5533    9.9553 -1.39e+00
   4.5483    2.6121    2.5047  6.87e-01
   4.9747    2.9499    5.2953  6.87e-01
   6.7883    4.6517    8.5106  6.81e-01
   5.5189    2.0366    7.9974  6.79e-01
   5.2688    4.2748    2.9869  6.78e-01
   5.6660    6.3968    8.5640  6.74e-01
   5.4365    1.7921    6.1714  6.74e-01
   5.3934    1.4291    0.7033  6.69e-01
   4.5279    3.8031    1.5720  6.69e-01
   5.7632    4.4675    6.2480  6.68e-01
   4.7232    3.5540    2.2972  6.64e-01
   6.1894    2.8662    9.7042  6.55e-01
   4.8535    3.4124    2.0217  6.47e-01
   6.1311    5.4126   11.1379  6.39e-01
   4.3885    2.6143    5.6888  6.34e-01
   4.6788    4.7635    1.4965  6.31e-01
   4.8362    4.2569    8.0885  6.27e-01
   5.9749    2.0674    2.9030  6.26e-01
   4.7813    4.3864    8.3827  6.22e-01
   4.4351    5.3948    6.9623  6.20e-01
   5.4158    1.6811   10.9685 -1.46e+00
   5.9086    4.3525    5.1699  6.15e-01
   6.7671    2.6586    9.4362  6.10e-01
   4.8115    3.4019    7.3069  6.00e-01
   5.1316    9.7055   10.2936 -1.49e+00
   6.2013    3.7385    4.1896  5.89e-01
   4.4338    1.8920    8.0837 -1.50e+00
   5.5490    4.0696   10.1647  5.72e-01
   4.5266    4.0645    3.2053  5.70e-01
   5.8809    2.4832    2.4399  5.68e-01
   6.1039    1.5800    2.5212  5.58e-01
   6.0492    1.6440    7.9080  5.53e-01
   5.4702    1.6007    6.8138  5.50e-01
   5.3559    4.2788    2.0699  5.48e-01
   6.7477    7.6801   11.2442 -1.53e+00
   4.4705    4.8262    4.7822  5.43e-01
   5.9096    1.9688    2.0280  5.38e-01
   5.4698    4.7811   10.5365  5.36e-01
   4.6084    2.0454    2.3193  5.35e-01
   4.8243    2.1386    3.0014  5.31e-01
   4.8739    4.1662    3.0806  5.31e-01
   6.3706    3.3087   10.5505  5.18e-01
   4.6350    5.1678    8.5908  5.18e-01
   4.7195    2.6234    0.3915  5.11e-01
   6.8370    6.2422   10.5348  5.09e-01
   5.3098    7.0406    9.3488  5.08e-01
   4.7549    4.2214    2.6024  5.06e-01
   6.2897    3.7484    7.4621  5.01e-01
   6.6169    1.3615    2.1584 -1.58e+00
   6.4500    2.0950    7.8857  4.95e-01
   6.7559    2.0731    8.7280  4.92e-01
   6.5261    4.6654   11.1613  4.91e-01
   4.8755    2.2326    4.0726  4.90e-01
   5.5807    3.3660    9.9915  4.89e-01
   5.3006    4.8739    4.0349  4.89e-01
   5.3309    4.9695    1.5935  4.86e-01
   5.5631    1.0425    1.9414  4.81e-01
   4.4483    4.0861    2.4562  4.80e-01
   6.5480    3.0565    0.7472  4.77e-01
   6.7112    4.0058    7.6827  4.76e-01
   5.3517    1.0258    2.6450  4.72e-01
   5.9542    5.9249    0.3095  4.65e-01
   5.9810    0.9401    1.5353  4.62e-01
   5.6824   -0.3821    6.7136 -1.62e+00
   5.5807    0.7636    3.1403  4.56e-01
   4.8899    4.2720    2.1646  4.53e-01
   5.4919    7.3693    9.7902  4.43e-01
   5.4588    0.8466    3.7920  4.30e-01
   5.7208    0.9829    4.9216  4.28e-01
   5.6310    0.8827    1.6652  4.26e-01
   4.5361    4.3943    4.3373  4.22e-01
   6.2395    3.7763   11.2483  4.19e-01
   4.6214    4.6626    8.9760  4.15e-01
   5.4679    1.9886    8.6067  4.13e-01
   5.8666    5.1141    6.3984  4.11e-01
   4.4626    5.3089    5.9023  4.09e-01
   4.4734    4.1453    8.5376  4.07e-01
   7.4302   -0.5768    5.5371 -1.68e+00
   4.4612    2.5229    7.1219  4.00e-01
   4.5016    6.0865    7.6355  3.94e-01
   6.3499    4.9361    7.9446  3.93e-01
   5.1787    7.4011    8.5390  3.92e-01
   6.0900    6.5597   11.1620  3.89e-01
   6.8434   -0.6892    4.1584 -1.69e+00
   6.6836    2.1877    9.1424  3.85e-01
   6.6953    1.9017    7.1115  3.84e-01
   5.5610    1.1294    4.4189  3.82e-01
   6.1973    0.6713    6.0142  3.78e-01
   6.4703    3.5753    7.0734  3.78e-01
   6.1929    4.0682    4.5065  3.76e-01
   5.1439    1.6430    7.3110  3.74e-01
   5.7598    5.3803   11.4077  3.69e-01
   6.4441    2.5033   10.2214  3.69e-01
   4.8271    4.9451    1.6954  3.67e-01
   4.6063    4.6156    3.8913  3.59e-01
   6.8653    3.4363   10.8708  3.57e-01
   6.1953    1.2433    0.8332  3.56e-01
   6.1890    1.6729    8.4549  3.54e-01
   5.4518    5.1664   10.8223  3.54e-01
   6.7334    1.5454    0.2819  3.38e-01
   4.8993    5.4520    5.5637  3.34e-01
   5.1446    7.3955   10.0269  3.26e-01
   6.2184    5.9909   11.5553  3.22e-01
   5.1219    5.0834    4.8162  3.19e-01
   5.0844    1.0817    5.0462  3.12e-01
   5.3280    2.7304    9.5184  3.09e-01
   4.4616    4.5708    3.4814  3.06e-01
   5.7706    1.0730    6.7509  3.00e-01
   6.4990    4.9305   11.5001  2.92e-01
   5.0171    1.8324    7.5313  2.63e-01
   6.1746    3.7134    2.9410  2.63e-01
   6.2728    2.4596    6.3925  2.59e-01
   6.7681    5.3838    8.2804  2.51e-01
   6.8527    6.3316   10.1224  2.51e-01
   5.1758    6.8275    7.0478  2.50e-01
   4.6436    6.0620    6.8303  2.37e-01
   6.5312    1.4787    7.5161  2.18e-01
   6.6268    2.8870   10.4942  2.13e-01
   6.6960    2.4300    1.2330  2.10e-01
   5.0845    1.1294    5.7631  2.08e-01
   5.2577    1.0354    1.1984  2.07e-01
   5.3702    6.5333   10.8098  1.77e-01
   6.2765   -0.8220    0.8078 -1.91e+00
   6.5749    5.1870   13.3448 -1.91e+00
   6.5444    1.3453    6.6960  1.67e-01
   6.3448    3.6563   11.0060  1.65e-01
   6.5067    4.2574   11.5120  1.64e-01
   6.1736    1.9186    9.8211  1.63e-01
   6.1240    3.7177    2.1884  1.62e-01
   5.7987    7.1294    8.6082  1.60e-01
   4.7605    4.9129    2.5303  1.58e-01
   5.9721    6.3038   11.2731  1.53e-01
   6.1346    4.8685    1.5468  1.46e-01
   5.3838    7.4615   10.4768  1.43e-01
   5.1139    1.2165    6.0484  1.42e-01
   6.8153    1.5659    8.7099  1.42e-01
   5.4486    7.2916    7.9524  1.32e-01
   6.0698    4.2072    1.7098  1.31e-01
   5.2305    4.7296    2.2110  1.23e-01
   6.7943    4.8928    0.5986  1.23e-01
   6.1050    3.2758    1.9293  1.10e-01
   5.9661    7.4711   11.1673  9.72e-02
   5.6680    1.0449    7.5684  9.01e-02
   5.9741    5.5190    1.1328  8.68e-02
   6.7148    1.5211    6.1554  8.25e-02
   6.9309   -0.1654    7.9667 -2.00e+00
   4.7465    1.5779    4.5172  7.44e-02
   4.3212    0.7929    5.9051 -2.01e+00
   5.0612    4.4968    1.9813  6.72e-02
   6.6970    3.8761    0.6930  6.66e-02
   4.7783    4.2450    9.2232  6.55e-02
   4.4191    3.1230    8.0701  6.41e-02
   5.4372    5.2626    4.2932  5.92e-02
   4.4966    6.1309    6.2302  5.71e-02
   6.7244    4.9766    7.3814  5.00e-02
   5.2917    2.7792    9.7363  4.43e-02
   5.0526    1.9688    9.1900  2.83e-02
   4.3885    4.4904    9.6150  2.80e-02
   5.5871    4.0869    0.0930  2.11e+00
   6.2031    0.3712    2.1382  1.92e-02
   5.4339    3.8627   10.7429  1.70e-02
   5.9785    1.2203    0.0080  1.56e-02
   6.8121    4.0129    6.8093  1.42e-02
   6.1597    7.8961   10.4598  4.99e-03
   5.1244    0.0826    2.1245 -1.66e-04
   6.0416    0.5415    4.3776 -7.76e-03
   4.4792    5.0396    4.1996 -1.09e-02
   5.4251    3.7550    0.0658  2.07e+00
   5.2036    0.5575    2.3475 -1.22e-02
   4.7162    1.2650    5.2084 -2.27e-02
   6.7300    5.5117    0.2908 -2.66e-02
   6.4436    1.6391    9.2016 -3.24e-02
   5.6227    4.1463    0.2211  2.04e+00
   5.8075    7.2274    8.2776 -4.12e-02
   4.7733    5.9583    5.7232 -4.46e-02
   5.3585    4.9188    0.1221  2.02e+00
   5.3688    4.6837   10.9761 -5.83e-02
   6.7539    3.2743   11.5249 -5.93e-02
   4.0546    5.1173   11.1449 -2.14e+00
   5.3379    4.6273    0.1719  2.01e+00
   6.7900    6.3745   11.3238 -7.76e-02
   6.3488    4.5580    5.2829 -2.16e+00
   6.6578    3.1157    5.5248 -7.81e-02
   5.8926    3.8685    0.2110  2.00e+00
   5.9134    0.0599    5.6037 -8.01e-02
   6.4481    4.1237   11.5727 -8.36e-02
   5.4222    0.5752    3.7075 -8.66e-02
   6.3701    1.4553    1.2932 -8.72e-02
   5.4272    7.5961   10.2896 -8.84e-02
   6.2017    6.4669    7.1979 -9.06e-02
   5.4300    6.5621    6.5350 -1.05e-01
   4.8489    5.1283    9.7349 -1.08e-01
   5.5144    3.9095    0.3862  1.97e+00
   5.3871    4.1126    0.4000  1.96e+00
   4.9054    5.2321    1.7077 -1.21e-01
   5.6685    0.6403    8.3030 -1.26e-01
   6.4666    0.8411    0.5322 -1.29e-01
   5.5912    0.6336    7.0379 -1.29e-01
   6.4390    0.9733    6.6081 -1.36e-01
   6.7786    5.4358    7.5441 -1.45e-01
   6.4486    7.3678   10.4637 -1.50e-01
   6.5829    1.8402    4.7182 -1.50e-01
   6.3183    0.6815    1.2229 -1.53e-01
   6.7046    7.0858   10.1507 -1.55e-01
   6.0328    4.0078    3.0558 -1.56e-01
   5.3197    6.1864    5.0713 -1.57e-01
   5.8203    3.5361   13.8256 -4.32e+00
   5.3245    4.6177    0.4198  1.91e+00
   4.6868    5.0126    3.5111 -1.72e-01
   5.6038    7.5617    8.6614 -1.80e-01
   6.4800    2.9513   11.2233 -1.80e-01
   6.7531    1.1068    5.8374 -1.84e-01
   6.5056    1.3947    9.4703 -1.89e-01
   5.2078    0.5041    4.5065 -1.95e-01
   5.7505    1.6852    9.4692 -1.96e-01
   5.7697    4.1743   11.7950 -2.04e-01
   6.2148    9.6377    8.4750 -2.28e+00
   5.6199    4.0658    0.5332  1.87e+00
   4.9679    0.9412    2.1642 -2.09e-01
   6.5853    1.2585    4.6803 -2.11e-01
   6.3192    0.7602    7.9088 -2.18e-01
   5.5942    3.3309    0.0093  1.86e+00
   6.3630    2.5731    1.5345 -2.25e-01
   6.4463    7.4217    9.8533 -2.25e-01
   5.5459    3.4239    0.2995  1.85e+00
   6.4084    4.4227   12.1767 -2.28e-01
   5.2309    4.2483    0.2602  1.84e+00
   5.2887    2.9189   10.3064 -2.36e-01
   5.6959    3.2638    0.3497  1.84e+00
   5.0496    4.9348    0.0825  1.84e+00
   4.6967    5.3888    3.3760 -2.49e-01
   5.1168    0.9918    7.4351 -2.54e-01
   5.4303    7.6437   10.4599 -2.55e-01
   6.1979    3.5608    0.0750  1.82e+00
   6.4372    6.6116   11.7222 -2.63e-01
   4.4154    6.4639    6.6520 -2.67e-01
   5.7804    3.7469    0.5160  1.81e+00
   5.4701    3.8600    0.7159  1.81e+00
   5.4108    3.3303    0.4845  1.81e+00
   5.5325    3.4375    0.6854  1.81e+00
   5.1088    4.1555    0.3942  1.80e+00
   5.5473    4.6005    0.5734  1.80e+00
   5.6055    5.0260    3.1897 -2.84e-01
   5.8279    2.8170    0.0116  1.79e+00
   5.1613    0.2858    1.5108 -2.92e-01
   4.4791    0.9935    3.2722 -2.94e-01
   5.7023    7.8997   10.9799 -2.95e-01
   5.5857    5.7243   11.4241 -3.01e-01
   5.2762    4.0197    0.3846  1.78e+00
   7.1296    3.4283    9.5019 -3.03e-01
   5.0433    6.3587    6.1030 -3.10e-01
   5.6055    4.1913    0.6496  1.76e+00
   6.2003    3.1969    0.0395  1.76e+00
   6.7225    0.9135    4.5054 -3.25e-01
   5.4806    6.0292    4.9977 -3.26e-01
   5.0340    6.1996    1.3811 -3.27e-01
   5.7715    0.1326    0.8313 -3.30e-01
   7.3926    4.9678   10.6298 -3.37e-01
   5.8656    4.3078    0.4798  1.74e+00
   6.4485    1.5338    1.8530 -3.41e-01
   6.1788    4.5599    0.0875  1.74e+00
   6.1972    5.4011    5.2371 -3.48e-01
   6.1883    3.5442    0.2445  1.73e+00
   6.8090    1.0363    8.6609 -3.51e-01
   5.3533    3.7259   10.8493 -3.54e-01
   6.8724    1.0540    4.2706 -3.67e-01
   4.9389    8.5922    7.0171 -2.45e+00
   6.6118    5.2813    7.3599 -3.67e-01
   5.1028    3.7474    0.1719  1.71e+00
   5.0812    5.2758    0.1128  1.71e+00
   5.3095    3.5416    0.3759  1.71e+00
   5.3294    3.1093    0.2964  1.70e+00
   5.5311    3.3347    0.8912  1.70e+00
   5.2196    4.6330    0.4700  1.70e+00
   5.1578    4.8537    0.3592  1.70e+00
   7.3932    4.1180   11.0572 -3.91e-01
   4.8964    4.5631   10.8510 -2.47e+00
   5.3777    6.6309    0.2566 -3.92e-01
   7.0049    3.0617    9.2803 -3.96e-01
   7.1523    2.5770    9.7235 -3.98e-01
   6.5139    4.5498    0.7782 -3.99e-01
   6.8709    1.9858    4.0608 -4.22e-01
   5.4048    0.0084   10.2154 -2.50e+00
   6.9865    4.1770    9.3057 -4.35e-01
   6.6632    0.8609    8.8118 -4.41e-01
   6.8918    2.9349   10.2097 -4.42e-01
   5.2629    0.4272    5.6501 -4.46e-01
   5.1599    5.2368    0.2783  1.63e+00
   4.5370    3.9587    9.8831 -4.50e-01
   5.5491    3.3911    1.0929  1.63e+00
   5.9876    3.7095    0.4049  1.62e+00
   6.0766    6.3755   12.0250 -4.58e-01
   5.5800    5.1640    2.5230 -4.59e-01
   5.1610    3.5013    0.8878  1.61e+00
   5.8950    2.7201    0.2705  1.61e+00
   6.0702   -0.3399    2.3219 -4.67e-01
   6.5011   12.1315   10.5595 -4.63e+00
   4.8519    5.3957    1.9323 -4.71e-01
   5.9785    3.2115    0.3660  1.61e+00
   5.9906   -0.0100    2.6414 -4.74e-01
   6.1604    3.8492    0.3507  1.60e+00
   6.7308    3.7287   13.5579 -2.56e+00
   7.2093    5.5999   10.5738 -4.84e-01
   6.2943    0.8320    3.1960 -4.84e-01
   6.1320    4.9166    0.1068  1.59e+00
   5.7236    4.1806    8.4422  1.59e+00
   5.5754    3.9699    1.0395  1.59e+00
   5.7438    4.2119    8.1341  1.58e+00
   5.7731    4.9880    3.5395 -5.00e-01
   5.5258    4.1532    7.8159  1.58e+00
   6.1740    8.1206   11.3534 -5.03e-01
   5.8338    4.4995    8.3714  1.57e+00
   5.4138    4.1625    7.7622  1.57e+00
   5.5292    4.5546    8.1742  1.57e+00
   3.9015    3.6385    1.8468 -5.10e-01
   5.8743    4.1927    8.1116  1.57e+00
   5.8316    3.8042    8.0321  1.57e+00
   5.8034    4.9780    8.7640  1.57e+00
   5.3566    4.5832    7.9592  1.56e+00
   5.5457    3.8650    7.5480  1.56e+00
   5.8908    4.8865    8.6473  1.56e+00
   4.1232    3.5013    2.9104 -5.20e-01
   5.6416    4.5042    8.1529  1.56e+00
   5.3943    3.9215    7.4899  1.56e+00
   5.7216    4.4197    9.0860  1.55e+00
   5.3467    2.6480    0.4938  1.55e+00
   5.4449    0.5143    6.1662 -5.32e-01
   5.0118    7.9770    7.9235 -5.32e-01
   6.0988    8.5672   10.5711 -5.34e-01
   6.3704    0.1792    6.1766 -5.40e-01
   6.8699    2.9100    4.0864 -5.41e-01
   5.1542    2.1829    9.9189 -5.41e-01
   6.4815    0.4903    5.4037 -5.41e-01
   5.5354    7.5747   12.5393 -2.63e+00
   5.4136    4.7207    8.7932  1.53e+00
   5.4519    3.5717    7.2659  1.53e+00
   5.8675    3.5295    7.7904  1.52e+00
   5.9080    4.9114    9.2312  1.52e+00
   5.6995    5.0100    8.9319  1.52e+00
   5.5875    4.6669    7.4927  1.52e+00
   5.8315    4.4696    7.9193  1.51e+00
   5.9435    2.7129    0.0503  1.51e+00
   5.8382    3.9224    7.4391  1.51e+00
   6.4205    0.1003    6.6406 -5.72e-01
   6.5359    0.7568    2.4787 -5.75e-01
   4.3836    1.5755    6.9354 -5.76e-01
   4.2943    4.3661    3.7400 -5.77e-01
