NLLOC "./loc/vinti.19950421.080259.grid0" "LOCATED" "Location completed."
SIGNATURE "Anthony Lomax - Geosciences Azur   NLLoc:v4.00.0 02May2005 16h33m44"
COMMENT "1995 Vintimiglia Sequence (NonLinLoc Sample Location)"
GRID  101 101 21  -50.000000 -50.000000 0.000000  1.000000 1.000000 1.000000 PROB_DENSITY
SEARCH OCTREE nInitial 400 nEvaluated 10000 smallestNodeSide 0.312500/0.312500/0.156250
HYPOCENTER  x 4.843750 y 6.093750 z 9.765625  OT 57.042699  ix -1 iy -1 iz -1
GEOGRAPHIC  OT 1995 04 21  08 02 57.042699  Lat 43.804836 Long 7.560198 Depth 9.765625
QUALITY  Pmax 1.385e-01 MFmin 0.574033 MFmax 6.463821 RMS 0.138245 Nphs 12 Gap 177 Dist 9.030267 Mamp -9.90 0 Mdur -9.90 0
VPVSRATIO  VpVsRatio 5.000e-01  Npair 2  Diff 1.000e+00
STATISTICS  ExpectX 5.0042e+00 Y 5.9705e+00 Z 8.7573e+00  CovXX 3.77e-01 XY -1.06e-01 XZ 4.57e-01 YY 1.88e+00 YZ -1.62e-01 ZZ 1.20e+01 EllAz1  86.3 Dip1  -2.2 Len1  1.12e+00 Az2  356.3 Dip2  1.1 Len2  2.58e+00 Len3  6.51e+00
STAT_GEOG  ExpectLat 43.803726 Long 7.562191 Depth 8.757340
TRANSFORM  LAMBERT RefEllipsoid Clarke-1880  LatOrig 43.750000  LongOrig 7.500000  FirstStdParal 43.199300  SecondStdParal 44.996100  RotCW 0.000000
FOCALMECH  Hyp  43.804836 7.560198 9.765625 Mech  0.0 0.0 0.0 mf  0.00 nObs 0
PHASE ID Ins Cmp On Pha  FM Date     HrMn   Sec     Err  ErrMag    Coda      Amp       Per      >   TTpred    Res       Weight    StaLoc(X  Y         Z)        SDist    SAzim  RAz   RDip  RQual    Tcorr 
RONE   ?    ?    ? P      U 19950421 0802   59.4400 GAU  1.00e-01 -1.00e+00 -1.00e+00 -1.00e+00 >    2.4928   -0.0955    1.1600    7.8887   14.5952   -0.3000    9.0303  19.71  19.7 133.9  9     0.0000
SBF    ?    ?    ? P      ? 19950421 0803    0.2600 GAU  1.00e-01 -1.00e+00 -1.00e+00 -1.00e+00 >    2.9930    0.2243    1.1600   -5.2384   12.6113   -0.8470   12.0053 302.88 302.9 124.0  9     0.0000
NEGI   ?    ?    ? P      U 19950421 0803    0.0200 GAU  1.00e-01 -1.00e+00 -1.00e+00 -1.00e+00 >    3.0178   -0.0805    1.1600   16.3893   10.8705   -0.6400   12.4947  67.52  67.5 122.6  9     0.0400
REVF   ?    ?    ? P      ? 19950421 0803    0.6700 GAU  1.00e-01 -1.00e+00 -1.00e+00 -1.00e+00 >    3.6986   -0.0713    1.1600  -10.6730   -1.1024   -0.7000   17.1042 245.12 245.1 114.4  9     0.0000
CEPP   ?    ?    ? P      U 19950421 0803    1.1400 GAU  1.00e-01 -1.00e+00 -1.00e+00 -1.00e+00 >    4.1277   -0.0304    1.1600   19.7971   18.5085   -1.0800   19.4352  50.30  50.3 111.7  9     0.0000
AURF   ?    ?    ? P      ? 19950421 0803    1.3900 GAU  1.00e-01 -1.00e+00 -1.00e+00 -1.00e+00 >    4.3352    0.0121    1.1600  -13.8607   15.2716   -1.0400   20.8348 296.14 296.1 110.1  9     0.0000
AUTN   ?    ?    ? P      ? 19950421 0803    2.0400 GAU  1.00e-01 -1.00e+00 -1.00e+00 -1.00e+00 >    4.9840    0.0133    1.1600   -5.8149   27.2765   -2.0690   23.7132 333.29 333.3 108.0  9     0.0000
IMI    ?    ?    ? P      ? 19950421 0803    2.7700 GAU  1.00e-01 -1.00e+00 -1.00e+00 -1.00e+00 >    5.6193    0.1080    1.1600   31.5793   17.9062   -0.8400   29.2288  66.16  66.2 102.9  9     0.0000
TOUF   ?    ?    ? P      ? 19950421 0803    3.5500 GAU  1.00e-01 -1.00e+00 -1.00e+00 -1.00e+00 >    6.5953   -0.0880    1.1600  -20.1791   29.3046   -1.8500   34.1304 312.85 312.8  99.8  9     0.0000
TOUF   ?    ?    ? S      ? 19950421 0803    7.6500 GAU  5.00e-01 -1.00e+00 -1.00e+00 -1.00e+00 >   11.0801   -0.4728    0.2000  -20.1791   29.3046   -1.8500   34.1304 312.85 312.8  99.8  9     0.0000
MVIF   ?    ?    ? P      ? 19950421 0803    3.5800 GAU  1.00e-01 -1.00e+00 -1.00e+00 -1.00e+00 >    6.5553   -0.0180    1.1600  -27.9180   16.3343   -1.4800   34.3249 287.36 287.4  99.4  9     0.0000
MVIF   ?    ?    ? S      ? 19950421 0803    8.6800 GAU  5.00e-01 -1.00e+00 -1.00e+00 -1.00e+00 >   11.0129    0.6244    0.2000  -27.9180   16.3343   -1.4800   34.3249 287.36 287.4  99.4  9     0.0000
END_PHASE
SCATTER Nsamples 1004
   5.2232    7.0205   13.3870  1.84e+00
   5.9397    4.7817   10.6190  1.84e+00
   4.3783    6.0983    0.0367  1.83e+00
   5.3827    5.2108    4.2185  1.83e+00
   4.9907    5.1480    1.5843  1.83e+00
   4.6885    3.5084    8.7317 -2.56e-01
   4.4652    8.5713    9.1304  1.81e+00
   4.5515    5.5505    0.9771  1.81e+00
   4.0753    6.8402   10.9440  1.81e+00
   4.8090    2.5423   12.2183 -2.70e-01
   5.1562    4.0952    7.8757  1.81e+00
   5.1105    6.0399    3.8250  1.81e+00
   4.0657    5.5874    9.1139  1.81e+00
   4.7007    4.0437    8.9244  1.80e+00
   5.1670    7.6643   12.4414  1.80e+00
   4.0830    6.0451    6.3131  1.80e+00
   3.8567    5.1808    9.9833  1.79e+00
   3.8506    7.0813    6.9080  1.78e+00
   4.1821    5.2164    8.4842  1.78e+00
   5.7765    6.5599    9.5407  1.77e+00
   4.5222    3.7773   11.3090  1.75e+00
   4.6764    5.0922    0.3563  1.75e+00
   5.0184    7.3948    5.7495  1.74e+00
   6.2491    4.4410   12.4291  1.74e+00
   4.8426    8.1543   10.5294  1.74e+00
   4.9508    8.6780    8.5162  1.74e+00
   4.8509    4.1429    8.3751  1.73e+00
   4.7863    7.5128    5.6339  1.73e+00
   3.8675    7.0622   10.8576  1.72e+00
   4.5176    6.5977    0.4787  1.72e+00
   4.2865    5.4472    8.0931  1.72e+00
   5.4976    3.7095    5.3357 -3.63e-01
   5.3666    5.3540    3.5099  1.70e+00
   3.8738    5.4941   10.5014  1.70e+00
   5.7994    5.1876    8.8572  1.70e+00
   5.1388    7.9958    7.4024  1.70e+00
   5.2835    5.6170   14.2641  1.70e+00
   5.1151    3.9248    7.3976  1.68e+00
   5.0290    4.9017   14.0308  1.68e+00
   5.2297    6.3611    4.3593  1.67e+00
   4.3387    5.9140    5.7007  1.67e+00
   4.3848    4.6930    4.2330  1.67e+00
   4.2761    5.9811   11.5381  1.67e+00
   5.9144    6.0563    8.6558  1.66e+00
   6.0257    5.1512   13.2154  1.65e+00
   4.1913    7.1484    6.4711  1.65e+00
   3.7962    2.6048    7.3083 -4.72e-01
   6.0336    7.1276   10.4202  1.59e+00
   4.9704    6.3741    0.0573  1.58e+00
   5.6944    4.8514   12.8974  1.58e+00
   4.6339    6.9603    3.0540  1.57e+00
   4.5658    9.1910    6.9428 -5.07e-01
   6.2437    6.3697    8.7777  1.57e+00
   4.8328    8.4670   11.0230  1.55e+00
   3.8792    5.5774   10.9895  1.55e+00
   4.0878    5.9894    5.1801  1.54e+00
   5.9459    4.5923    9.3081  1.54e+00
   4.1248    5.0883    6.7620  1.53e+00
   5.1338    4.7030    4.0958  1.53e+00
   5.3141    8.2583   10.7846  1.53e+00
   4.9851    4.0595    6.9127  1.52e+00
   6.6667    4.5027   17.6521 -2.64e+00
   5.5014    5.1027    2.4715  1.52e+00
   4.5434    7.7253    5.0770  1.51e+00
   4.3500    6.3469    4.7853  1.51e+00
   4.3782    6.9623    1.5127  1.51e+00
   5.1248    4.9296   14.2682  1.49e+00
   3.9048    7.6995    7.8408  1.49e+00
   5.1792    5.4400    2.0411  1.48e+00
   5.2958    5.9849    1.7777  1.48e+00
   4.4102    5.0858   13.8580  1.47e+00
   5.9056    6.1240    8.0922  1.46e+00
   5.3725    4.7824    3.7886  1.46e+00
   6.1524    6.2993   13.3457  1.46e+00
   5.2881    5.1610    1.6423  1.46e+00
   5.8872    3.9235   11.4605  1.45e+00
   5.2895    2.8221    4.2526 -6.39e-01
   4.9225    8.2698    7.2240  1.42e+00
   5.0478    5.0640    1.3541  1.42e+00
   5.5996    5.9382    1.0224  1.42e+00
   5.1107    7.0588   13.7672  1.41e+00
   5.0079    3.2274   10.1001  1.41e+00
   5.3588    4.4996    3.5209  1.41e+00
   4.9492    7.1807    0.7445  1.40e+00
   4.9003    3.3776   13.1524 -6.86e-01
   4.4509    4.7742   13.5680  1.39e+00
   5.3434    8.2921   11.3615  1.39e+00
   4.7536    4.9066    1.7444  1.39e+00
   3.9346    7.8864    7.3022  1.38e+00
   4.8027    4.9446    1.3886  1.38e+00
   5.8650    6.2654    8.1412  1.37e+00
   4.6886    4.3272   12.5305  1.37e+00
   6.1590    9.9220    9.6703 -7.11e-01
   6.0850    4.5828   13.7235  1.35e+00
   6.0990    5.6129    7.5438  1.35e+00
   4.9621    6.8941   13.5481  1.35e+00
   5.3809    3.1911   12.0118  1.33e+00
   4.0353    5.1302   11.6591  1.32e+00
   4.4479    7.5244    4.5033  1.31e+00
   5.1052    6.7753   14.5882  1.31e+00
   3.9956    5.7933    3.8440  1.30e+00
   6.0781    3.9715   12.7853  1.29e+00
   4.5352    7.8322   13.1248  1.29e+00
   5.6128    3.8827   14.0580  1.28e+00
   4.7581    6.2324    9.9957  3.35e+00
   4.9645    6.4721    9.7584  3.35e+00
   4.6929    6.1967    9.4080  3.35e+00
   5.4371    4.8227    2.6361  1.27e+00
   4.8145    6.2976    9.9329  3.35e+00
   4.9362    6.3628    9.5057  3.35e+00
   3.7648    4.5829    9.6863  1.26e+00
   4.9448    6.3249    9.2741  3.34e+00
   4.7096    6.4208   10.1430  3.34e+00
   5.0032    6.2120   10.1213  3.34e+00
   5.0898    6.1663    9.8720  3.33e+00
   4.7960    6.5594    9.0737  3.33e+00
   4.7732    5.0379   14.1032  1.25e+00
   5.3300    5.0757   14.7745  1.25e+00
   5.4762    6.2159   14.8535  1.25e+00
   5.0119    6.1088   10.3713  3.32e+00
   4.2653    7.9509    6.6854  1.24e+00
   4.9361    5.9540   10.3699  3.31e+00
   5.0561    6.4637    9.8457  3.31e+00
   5.2044    5.7585   10.0072  3.31e+00
   5.1656    6.5044    9.7531  3.30e+00
   5.0468    6.4872   10.1780  3.30e+00
   4.9094    5.8299    9.9781  3.30e+00
   5.1028    5.3662    0.3380  1.22e+00
   4.8712    5.7366    9.6771  3.30e+00
   5.1614    5.6948    9.8052  3.30e+00
   4.7162    5.8070    9.4677  3.29e+00
   5.4930    6.1574    0.3585  1.21e+00
   5.1818    6.2959    1.3373  1.21e+00
   4.9256    8.4452    6.6322  1.21e+00
   5.7160    5.1381   14.0850  1.21e+00
   5.2141    6.5024   10.3586  3.29e+00
   4.8863    6.8322    9.6603  3.29e+00
   4.8892    5.8928    9.3361  3.29e+00
   4.6881    5.9428    8.6303  3.29e+00
   4.3465    5.8869    3.4201  1.20e+00
   4.7329    5.7595   10.1568  3.28e+00
   5.0216    6.4603    9.4113  3.28e+00
   4.5761    4.6916   14.0039  1.20e+00
   5.9592    7.3144   13.0024  1.20e+00
   4.7327    6.8013    9.3453  3.28e+00
   5.1333    5.8161   10.4861  3.28e+00
   4.8986    6.5945   10.1418  3.27e+00
   4.0196    4.7071    8.2634  1.19e+00
   5.4261    7.5400    6.0795  1.19e+00
   5.2270    6.2343    9.2125  3.27e+00
   3.8742    7.1169    4.5093  1.19e+00
   5.1289    3.1507    8.7528  1.18e+00
   4.1289    6.0352    1.0125  1.18e+00
   4.4164    7.2130    0.3797  1.18e+00
   5.5243    7.0246   14.2763  1.18e+00
   4.9808    6.7542   10.2384  3.25e+00
   4.9082    6.2299   10.7374  3.25e+00
   5.6150    8.5055   12.1295  1.17e+00
   3.8264    5.7130    0.3851  1.17e+00
   4.7753    6.4587   14.2806  1.17e+00
   4.1769    6.8550    1.3793  1.16e+00
   4.9328    6.7729    8.7776  3.24e+00
   4.9635    4.0017    5.1343  1.16e+00
   4.9251    6.6062   10.4390  3.23e+00
   4.8824    5.6395    8.7438  3.23e+00
   5.2068    6.8172    9.9998  3.23e+00
   5.0780    5.9861    8.8921  3.22e+00
   5.0348    6.6842    9.6971  3.22e+00
   6.1567    6.6845   13.8992  1.14e+00
   5.2186    6.8473   10.2218  3.22e+00
   4.0441    6.1262    0.0046  1.14e+00
   5.1051    5.4092    9.9505  3.22e+00
   5.2271    5.3449   10.2973  3.22e+00
   5.0888    6.7607    9.5792  3.21e+00
   5.6112    4.7217    1.3492  1.13e+00
   5.0599    5.8799   11.0064  3.20e+00
   4.8678    6.5067   10.9014  3.20e+00
   5.2285    6.0824    8.6073  3.20e+00
   5.8579    5.0419   17.0532 -9.57e-01
   5.2006    6.4064    8.8664  3.20e+00
   5.2046    6.6819    9.4157  3.20e+00
   6.0158    4.3026   13.2024  1.12e+00
   5.2341    5.3185    9.5857  3.20e+00
   4.7255    5.7908    8.3550  3.19e+00
   5.1617    4.2800   14.1411  1.11e+00
   5.1053    5.7938    8.8765  3.19e+00
   5.5269    3.8769    4.7154  1.11e+00
   5.2704    6.8246   10.6071  3.19e+00
   5.0326    5.5152    9.4671  3.18e+00
   4.8246    5.7910   10.8927  3.18e+00
   5.2959    5.9900    8.4547  3.18e+00
   4.9029    5.5047   10.2292  3.18e+00
   4.6864    3.8015    4.9427  1.10e+00
   4.8347    6.6279   10.6846  3.17e+00
   5.6184    7.1978    3.8209  1.09e+00
   5.0894    6.6242   10.7434  3.17e+00
   5.0106    5.4551    9.2566  3.16e+00
   4.7184    7.1710    9.4736  3.16e+00
   4.7274    6.4883   10.9529  3.16e+00
   5.0785    6.7264    9.1581  3.16e+00
   5.3809    5.8718    0.0255  1.08e+00
   4.8520    6.6851    8.1288  3.15e+00
   5.1656    6.0459    8.3130  3.15e+00
   3.7654    7.7949    5.9897  1.07e+00
   4.9175    5.7037    8.0806  3.15e+00
   4.0575    6.6151    0.1394  1.07e+00
   5.2022    5.5420    9.2099  3.14e+00
   4.9818    5.5425   10.5304  3.14e+00
   4.8925    6.8673   10.8190  3.13e+00
   5.0383    5.3714   10.9994  3.13e+00
   4.7123    6.9024    9.0122  3.13e+00
   4.3859    5.9368   14.4061  1.05e+00
   5.4349    3.9664    4.6851  1.05e+00
   4.1512    6.0760   12.6095  1.05e+00
   5.5040    6.5336   14.9390  1.05e+00
   6.0167    3.9039   17.2812 -1.03e+00
   4.7738    6.8491    8.1083  3.12e+00
   5.0843    6.4316    8.3292  3.12e+00
   5.2586    5.7998    8.3205  3.12e+00
   5.2868    5.3528    8.9648  3.12e+00
   4.9999    5.6169    8.7173  3.12e+00
   4.9797    6.3007   11.1699  3.12e+00
   4.6496    3.1888   10.3843  1.04e+00
   5.0837    8.5432   12.4731  1.04e+00
   5.2499    6.2469   11.4276  3.11e+00
   4.4274    6.4356    9.5861  3.11e+00
   6.0858    4.8995    7.3466  1.03e+00
   5.2773    6.7479   11.0327  3.10e+00
   4.9896    5.3813    8.5734  3.10e+00
   5.1396    3.5556    7.8476  1.02e+00
   3.7599    4.4255    6.9345  1.02e+00
   5.1565    5.7820   11.5062  3.10e+00
   6.0927    7.5821   11.3675  1.01e+00
   5.2533    6.5356    8.1498  3.09e+00
   5.1880    7.1450    9.8625  3.09e+00
   5.8576    4.0889   13.4979  1.01e+00
   4.6651    6.1927    8.9649  3.09e+00
   5.2285    4.8111    0.6431  1.01e+00
   5.3861    6.9602    3.7187  1.00e+00
   4.5411    6.2246    9.9730  3.08e+00
   5.2709    5.3458    8.6043  3.08e+00
   4.8072    3.5606   11.1361  1.00e+00
   5.0137    5.2823   10.1621  3.08e+00
   5.3837    5.2043   15.0556  1.00e-00
   5.8571    6.2226   14.4713  9.91e-01
   4.9721    5.9054    7.5283  3.07e+00
   5.1878    5.4172   11.3965  3.07e+00
   4.3839    6.5059    8.5251  3.07e+00
   5.2064    6.7367    8.4975  3.06e+00
   4.5274    6.1786    8.6659  3.06e+00
   4.6305    6.5940    9.1560  3.06e+00
   5.1336    7.0278    9.5122  3.06e+00
   4.5463    6.7880    9.5548  3.06e+00
   4.8080    8.1347    6.0543  9.77e-01
   4.9252    6.1707    7.3217  3.05e+00
   5.5955    8.4602    7.6289  9.74e-01
   4.3972    6.8643    9.7862  3.05e+00
   5.0712    5.0332   10.6629  3.05e+00
   4.6795    6.3082    8.3861  3.05e+00
   4.8942    6.5649   11.1615  3.04e+00
   4.6036    7.8492   14.9793 -1.12e+00
   6.9408    5.2469   13.3259 -1.12e+00
   4.8017    6.4003    7.3035  3.04e+00
   4.6742    3.6545   11.5339  9.61e-01
   4.7746    5.7014    7.4828  3.04e+00
   5.2902    3.5911    7.6269  9.60e-01
   5.1812    5.0746    9.4097  3.04e+00
   4.9736    5.4689    7.9756  3.04e+00
   4.4734    7.8920    3.3427  9.53e-01
   5.0578    5.1479   10.8322  3.03e+00
   5.7991    7.6595   10.0898  9.51e-01
   5.3994    5.6498   10.5379  3.03e+00
   5.2540    6.7689   11.3003  3.03e+00
   5.0690    6.3451    7.8303  3.03e+00
   4.5113    6.5737   10.1332  3.02e+00
   4.8797    5.1311   10.1801  3.02e+00
   5.3496    5.6534   10.6927  3.02e+00
   4.4783    6.3670   10.3553  3.02e+00
   4.7349    5.2023    9.4814  3.02e+00
   4.4134    6.8105    8.5536  3.02e+00
   5.6554    1.2901   10.7415 -1.14e+00
   4.4663    5.8518    9.1080  3.02e+00
   5.4721    5.6960    9.9122  3.02e+00
   5.4070    6.2169   10.7969  3.01e+00
   4.8439    5.2979   10.3874  3.01e+00
   4.8362    5.1047    9.3633  3.01e+00
   5.3755    5.7756   10.8517  3.01e+00
   5.0522    5.0406   11.0347  3.01e+00
   4.7842    6.8845   10.7841  3.01e+00
   5.5078    4.4302    0.5952  9.27e-01
   4.5008    3.7821   13.6402  9.24e-01
   3.7756    7.4915    1.0027  9.23e-01
   5.3047    7.1078    3.2085  9.20e-01
   5.2251    5.1995    9.1016  3.00e+00
   4.8641    6.8257   11.3516  2.99e+00
   5.6103    6.3640   10.2144  2.99e+00
   5.4007    6.3513   10.3708  2.99e+00
   3.7939    4.6493    6.3154  9.10e-01
   5.3673    6.3454   10.0556  2.99e+00
   5.3514    6.4011   10.4970  2.99e+00
   6.0086    6.9050   13.5227  9.08e-01
   4.6248    3.6131   11.6532  9.07e-01
   4.9164    5.9426    6.9242  2.99e+00
   4.4812    6.0216   10.5278  2.98e+00
   5.5594    6.4575    9.9895  2.98e+00
   5.3563    3.1342    7.4088  8.95e-01
   4.9647    7.2973    9.2480  2.97e+00
   4.6856    6.3580   14.5680  8.94e-01
   5.2714    5.0789    9.0494  2.97e+00
   5.6932    6.8676    7.0847  8.92e-01
   5.0620    5.7903    7.5692  2.97e+00
   4.9192    5.1789   10.7543  2.97e+00
   5.1165    6.6346    8.0425  2.97e+00
   4.3167    8.6566    9.3724  8.88e-01
   4.6653    6.6751   10.4453  2.97e+00
   4.7426    4.0367    3.5844  8.86e-01
   5.5450    5.4288   10.1556  2.96e+00
   4.7855    6.9749   11.0445  2.96e+00
   5.3987    6.1906    9.4424  2.96e+00
   5.5399    6.4871    9.8066  2.96e+00
   3.9792    5.1088    1.0441  8.79e-01
   4.6406    5.6415    8.3373  2.96e+00
   5.1083    6.3639    7.5963  2.96e+00
   4.9237    7.4155   10.2895  2.95e+00
   5.4724    5.5923    9.9099  2.95e+00
   5.0736    5.0866   11.3032  2.95e+00
   4.5813    6.3378   10.6652  2.95e+00
   4.4500    7.0157    9.8245  2.94e+00
   4.9660    5.2338   10.8215  2.94e+00
   5.5974    6.3885   10.9956  2.94e+00
   5.1878    5.5737   11.7936  2.94e+00
   5.5097    5.4305    9.7836  2.93e+00
   4.2709    7.9181   11.6779  8.52e-01
   3.8094    7.1118    0.9179  8.51e-01
   4.7666    7.1499    7.7086  2.93e+00
   6.2085    3.1671   11.4042  8.50e-01
   5.4617    6.4163    0.3828  8.49e-01
   4.8018    7.2839   10.3248  2.93e+00
   4.6506    6.2006    7.5309  2.93e+00
   4.5245    7.1688    8.6408  2.93e+00
   5.1601    8.5222    7.4813  8.44e-01
   4.6916    4.1436    3.1525  8.41e-01
   5.1474    7.0241    8.5156  2.92e+00
   4.9645    5.1895   11.0778  2.91e+00
   5.1296    1.6175   10.3871 -1.25e+00
   5.2828    5.0684    8.5899  2.91e+00
   5.4900    5.4560    9.6810  2.91e+00
   4.4454    9.1292    9.2062  8.31e-01
   4.6031    9.1531   10.1286  8.26e-01
   4.2768    5.2740    1.8358  8.24e-01
   5.1890    3.7325    7.0721  8.24e-01
   4.6532    6.1016   10.8168  2.90e+00
   4.8058    7.1907   10.5234  2.90e+00
   4.7720    6.3634   11.7729  2.90e+00
   5.1079    7.4656    9.8893  2.89e+00
   4.6495    5.5690    9.4160  2.89e+00
   5.3378    5.4600   11.3743  2.89e+00
   4.4346    5.3402    9.2779  2.89e+00
   4.5774    6.6726   10.6276  2.89e+00
   5.4769    6.4529   11.4040  2.89e+00
   4.4828    5.7160   10.6575  2.89e+00
   4.6013    5.5321    9.8664  2.88e+00
   4.7937    6.6132   11.5942  2.88e+00
   4.6159    6.4105    7.2400  2.88e+00
   4.8887    5.6082   11.5694  2.87e+00
   4.9829    5.3522    7.1773  2.87e+00
   5.6039    7.0696    2.7849  7.90e-01
   4.3955    5.4003    8.8777  2.87e+00
   4.8064    7.1457   11.2796  2.87e+00
   5.2338    7.4596    9.4235  2.86e+00
   5.9273    8.0045    9.5159  7.84e-01
   5.6182    6.8125    9.7488  2.86e+00
   4.4475    2.9775    1.9625 -1.30e+00
   5.3291    6.7357   10.8854  2.86e+00
   5.6082    5.8799    8.9563  2.86e+00
   5.1310    4.9979    9.5569  2.86e+00
   5.4360    5.3799    9.2497  2.86e+00
   5.4685    5.0102   10.7051  2.86e+00
   5.0757    6.9238    8.2311  2.85e+00
   4.6345    9.2867   10.4648  7.70e-01
   4.4714    6.5495    7.1800  2.85e+00
   5.0947    7.3977    9.3574  2.85e+00
   5.0201    4.9111    9.5021  2.84e+00
   4.7877    5.2994   11.3872  2.84e+00
   4.4103    5.5382   10.4279  2.83e+00
   5.5838    5.7881    8.9042  2.83e+00
   5.0991    4.8259   11.0029  2.83e+00
   4.4599    5.9335    7.3642  2.83e+00
   4.4080    5.5010    8.3025  2.82e+00
   5.8005    4.0981   14.1964  7.43e-01
   5.0876    6.8738    7.3977  2.82e+00
   4.6569    6.9760   10.5330  2.82e+00
   5.6239    6.2889   11.6514  2.82e+00
   4.8767    4.7597   10.0276  2.82e+00
   4.7337    7.8809    1.9415  7.36e-01
   5.5880    6.6191    9.4787  2.81e+00
   4.7523    4.7534    9.6675  2.81e+00
   4.9393    5.4730    6.8614  2.81e+00
   5.3062    4.8332   11.2363  2.81e+00
   4.8033    3.4872    7.7892  7.26e-01
   4.6093    6.4175   11.1391  2.80e+00
   5.1298    7.3487   10.8728  2.80e+00
