NLLOC "./loc/vinti.19950422.151153.grid0" "LOCATED" "Location completed."
SIGNATURE "Anthony Lomax - Geosciences Azur   NLLoc:v4.00.0 02May2005 16h33m44"
COMMENT "1995 Vintimiglia Sequence (NonLinLoc Sample Location)"
GRID  101 101 21  -50.000000 -50.000000 0.000000  1.000000 1.000000 1.000000 PROB_DENSITY
SEARCH OCTREE nInitial 400 nEvaluated 10032 smallestNodeSide 0.156250/0.156250/0.078125
HYPOCENTER  x 4.296875 y 1.953125 z 8.085938  OT 50.834975  ix -1 iy -1 iz -1
GEOGRAPHIC  OT 1995 04 22  15 11 50.834975  Lat 43.767568 Long 7.553368 Depth 8.085938
QUALITY  Pmax 2.510e-02 MFmin 0.700950 MFmax 7.549885 RMS 0.161248 Nphs 15 Gap 198 Dist 13.142387 Mamp -9.90 0 Mdur -9.90 0
VPVSRATIO  VpVsRatio 1.617e+00  Npair 4  Diff 1.910e+00
STATISTICS  ExpectX 4.3797e+00 Y 1.6142e+00 Z 6.2801e+00  CovXX 2.59e-01 XY -2.19e-01 XZ 9.35e-02 YY 1.34e+00 YZ 1.15e+00 ZZ 9.65e+00 EllAz1  76.9 Dip1  -2.1 Len1  8.49e-01 Az2  346.7 Dip2  -7.4 Len2  2.09e+00 Len3  5.89e+00
STAT_GEOG  ExpectLat 43.764517 Long 7.554394 Depth 6.280084
TRANSFORM  LAMBERT RefEllipsoid Clarke-1880  LatOrig 43.750000  LongOrig 7.500000  FirstStdParal 43.199300  SecondStdParal 44.996100  RotCW 0.000000
FOCALMECH  Hyp  43.767568 7.553368 8.085938 Mech  0.0 0.0 0.0 mf  0.00 nObs 0
PHASE ID Ins Cmp On Pha  FM Date     HrMn   Sec     Err  ErrMag    Coda      Amp       Per      >   TTpred    Res       Weight    StaLoc(X  Y         Z)        SDist    SAzim  RAz   RDip  RQual    Tcorr 
RONE   ?    ?    ? P      ? 19950422 1511   53.6300 GAU  1.00e-01 -1.00e+00 -1.00e+00 -1.00e+00 >    2.8993   -0.1043    1.0584    7.8887   14.5952   -0.3000   13.1424  15.86  15.9 116.9  9     0.0000
RONE   ?    ?    ? S      ? 19950422 1511   55.7000 GAU  1.00e-01 -1.00e+00 -1.00e+00 -1.00e+00 >    4.8708   -0.0058    1.0584    7.8887   14.5952   -0.3000   13.1424  15.86  15.9 116.9  9     0.0000
SBF    ?    ?    P G      ? 19950422 1511   54.3200 GAU  1.00e-01 -1.00e+00 -1.00e+00 -1.00e+00 >    3.1824    0.3027    1.0584   -5.2384   12.6113   -0.8470   14.3010 318.18 318.2 115.6  9     0.0000
NEGI   ?    ?    ? P      ? 19950422 1511   54.1300 GAU  1.00e-01 -1.00e+00 -1.00e+00 -1.00e+00 >    3.2511    0.0039    1.0584   16.3893   10.8705   -0.6400   15.0249  53.59  53.6 114.3  9     0.0400
NEGI   ?    ?    ? S      ? 19950422 1511   56.4200 GAU  1.00e-01 -1.00e+00 -1.00e+00 -1.00e+00 >    5.4619    0.0831    1.0584   16.3893   10.8705   -0.6400   15.0249  53.59  53.6 114.3  9     0.0400
REVF   ?    ?    P G      ? 19950422 1511   53.8700 GAU  1.00e-01 -1.00e+00 -1.00e+00 -1.00e+00 >    3.3018   -0.2668    1.0584  -10.6730   -1.1024   -0.7000   15.2785 258.46 258.5 114.1  9     0.0000
AURF   ?    ?    P G      ? 19950422 1511   55.5400 GAU  1.00e-01 -1.00e+00 -1.00e+00 -1.00e+00 >    4.5040    0.2011    1.0584  -13.8607   15.2716   -1.0400   22.5184 306.26 306.3 107.4  9     0.0000
AURF   ?    ?    ? p      ? 19950422 1511   55.5700 GAU  5.00e-01 -1.00e+00 -1.00e+00 -1.00e+00 >    4.5040    0.2311    0.1825  -13.8607   15.2716   -1.0400   22.5184 306.26 306.3 107.4  9     0.0000
CEPP   ?    ?    ? P      ? 19950422 1511   55.3200 GAU  1.00e-01 -1.00e+00 -1.00e+00 -1.00e+00 >    4.5371   -0.0521    1.0584   19.7971   18.5085   -1.0800   22.6790  43.11  43.1 107.3  9     0.0000
CEPP   ?    ?    ? S      ? 19950422 1511   58.3400 GAU  1.00e-01 -1.00e+00 -1.00e+00 -1.00e+00 >    7.6223   -0.1173    1.0584   19.7971   18.5085   -1.0800   22.6790  43.11  43.1 107.3  9     0.0000
AUTN   ?    ?    P G      ? 19950422 1511   56.0300 GAU  1.00e-01 -1.00e+00 -1.00e+00 -1.00e+00 >    5.4634   -0.2683    1.0584   -5.8149   27.2765   -2.0690   27.2676 338.23 338.2 105.1  9     0.0000
AUTN   ?    ?    i p      u 19950422 1511   56.1800 GAU  1.00e-01 -1.00e+00 -1.00e+00 -1.00e+00 >    5.4634   -0.1183    1.0584   -5.8149   27.2765   -2.0690   27.2676 338.23 338.2 105.1  9     0.0000
IMI    ?    ?    ? P      ? 19950422 1511   56.8700 GAU  1.00e-01 -1.00e+00 -1.00e+00 -1.00e+00 >    5.9325    0.1025    1.0584   31.5793   17.9062   -0.8400   31.6043  59.68  59.7 102.8  9     0.0000
IMI    ?    ?    ? S      ? 19950422 1512    0.8500 GAU  1.00e-01 -1.00e+00 -1.00e+00 -1.00e+00 >    9.9666    0.0484    1.0584   31.5793   17.9062   -0.8400   31.6043  59.68  59.7 102.8  9     0.0000
MVIF   ?    ?    P G      ? 19950422 1511   57.6400 GAU  1.00e-01 -1.00e+00 -1.00e+00 -1.00e+00 >    6.6536    0.1514    1.0584  -27.9180   16.3343   -1.4800   35.2791 294.06 294.1 101.7  9     0.0000
0666   ?    ?    e p      d 19950422 1511   53.0400 GAU  1.00e-01 -1.00e+00 -1.00e+00 -1.00e+00 >    0.0000    0.0000    0.0000    0.0000    0.0000    0.0000    0.0000   0.00   0.0   0.0  0     0.0000
0665   ?    ?    e p      d 19950422 1511   53.0800 GAU  1.00e-01 -1.00e+00 -1.00e+00 -1.00e+00 >    0.0000    0.0000    0.0000    0.0000    0.0000    0.0000    0.0000   0.00   0.0   0.0  0     0.0000
.obs   ?    ?    i p      d 19950422 1511   54.5200 GAU  1.00e-01 -1.00e+00 -1.00e+00 -1.00e+00 >    0.0000    0.0000    0.0000    0.0000    0.0000    0.0000    0.0000   0.00   0.0   0.0  0     0.0000
ENR    ?    ?    ? P      ? 19950422 1512    0.0800 GAU  1.00e-01 -1.00e+00 -1.00e+00 -1.00e+00 >    0.0000    0.0000    0.0000    0.0000    0.0000    0.0000    0.0000   0.00   0.0   0.0  0     0.0000
STV    ?    ?    ? P      ? 19950422 1512    0.5800 GAU  1.00e-01 -1.00e+00 -1.00e+00 -1.00e+00 >    0.0000    0.0000    0.0000    0.0000    0.0000    0.0000    0.0000   0.00   0.0   0.0  0     0.0000
ROB    ?    ?    ? P      ? 19950422 1512    1.7800 GAU  5.00e-01 -1.00e+00 -1.00e+00 -1.00e+00 >    0.0000    0.0000    0.0000    0.0000    0.0000    0.0000    0.0000   0.00   0.0   0.0  0     0.0000
FIN    ?    ?    ? P      ? 19950422 1512    3.3300 GAU  5.00e-01 -1.00e+00 -1.00e+00 -1.00e+00 >    0.0000    0.0000    0.0000    0.0000    0.0000    0.0000    0.0000   0.00   0.0   0.0  0     0.0000
FRF    ?    ?    ? G      ? 19950422 1512    4.7000 GAU  1.00e-01 -1.00e+00 -1.00e+00 -1.00e+00 >    0.0000    0.0000    0.0000    0.0000    0.0000    0.0000    0.0000   0.00   0.0   0.0  0     0.0000
PZZ    ?    ?    ? P      ? 19950422 1512    5.7900 GAU  1.00e+00 -1.00e+00 -1.00e+00 -1.00e+00 >    0.0000    0.0000    0.0000    0.0000    0.0000    0.0000    0.0000   0.00   0.0   0.0  0     0.0000
ENR    ?    ?    ? S      ? 19950422 1512    5.8000 GAU  1.00e-01 -1.00e+00 -1.00e+00 -1.00e+00 >    0.0000    0.0000    0.0000    0.0000    0.0000    0.0000    0.0000   0.00   0.0   0.0  0     0.0000
STV    ?    ?    ? S      ? 19950422 1512    6.7100 GAU  1.00e-01 -1.00e+00 -1.00e+00 -1.00e+00 >    0.0000    0.0000    0.0000    0.0000    0.0000    0.0000    0.0000   0.00   0.0   0.0  0     0.0400
LMR    ?    ?    ? G      ? 19950422 1512    7.4000 GAU  1.00e-01 -1.00e+00 -1.00e+00 -1.00e+00 >    0.0000    0.0000    0.0000    0.0000    0.0000    0.0000    0.0000   0.00   0.0   0.0  0     0.0000
LRG    ?    ?    ? G      ? 19950422 1512    8.9000 GAU  1.00e-01 -1.00e+00 -1.00e+00 -1.00e+00 >    0.0000    0.0000    0.0000    0.0000    0.0000    0.0000    0.0000   0.00   0.0   0.0  0     0.0000
ROB    ?    ?    ? S      ? 19950422 1512    9.1100 GAU  5.00e-01 -1.00e+00 -1.00e+00 -1.00e+00 >    0.0000    0.0000    0.0000    0.0000    0.0000    0.0000    0.0000   0.00   0.0   0.0  0     0.0000
FIN    ?    ?    ? S      ? 19950422 1512   11.5100 GAU  5.00e-01 -1.00e+00 -1.00e+00 -1.00e+00 >    0.0000    0.0000    0.0000    0.0000    0.0000    0.0000    0.0000   0.00   0.0   0.0  0     0.0000
PZZ    ?    ?    ? S      ? 19950422 1512   15.4000 GAU  1.00e+00 -1.00e+00 -1.00e+00 -1.00e+00 >    0.0000    0.0000    0.0000    0.0000    0.0000    0.0000    0.0000   0.00   0.0   0.0  0     0.0000
END_PHASE
SCATTER Nsamples 954
   4.3953    1.6755    7.4609  1.84e+00
   4.3641    2.3377    7.5507  1.83e+00
   4.5711    1.4271    8.2821  1.83e+00
   4.3833    1.2740    7.2780  1.83e+00
   3.2196    1.7873    3.1044 -2.58e-01
   4.5384    2.0463    7.9274  1.82e+00
   3.9214    0.3069    8.5611 -2.63e-01
   4.1038    1.9288    6.7756  1.81e+00
   4.6382    1.5568    7.0870  1.81e+00
   3.6858    1.4309    7.4030 -2.75e-01
   5.0058    0.9689    6.4482 -2.76e-01
   3.6571    3.1300    6.4454 -2.78e-01
   4.3336    1.4459    7.3574  1.80e+00
   3.7539    1.5175   11.1987 -2.84e-01
   4.4107    1.3066    6.9046  1.79e+00
   4.3683    1.7110    6.3979  1.79e+00
   4.6518    1.4468    8.6703  1.79e+00
   4.4195    2.4604    8.9375  1.78e+00
   4.4220    2.2043    8.6210  1.77e+00
   4.3129    1.2843    6.5336  1.77e+00
   4.2227    2.2730    9.3182  1.77e+00
   4.6205    2.4993    9.0756  1.77e+00
   4.1398    2.7742    8.4141  1.77e+00
   4.1191    1.6761    6.2160  1.76e+00
   4.4459    1.5019    8.8441  1.76e+00
   4.4775    2.1478    9.5187  1.76e+00
   4.1779    1.4949    6.4018  1.76e+00
   4.3102    1.6570    8.8337  1.75e+00
   4.5182    1.6314    9.2289  1.75e+00
   4.2237    2.0439    6.4317  1.75e+00
   4.1978    1.4084    8.0824  1.74e+00
   4.2748    1.5000    6.2049  1.74e+00
   4.3925    1.0989    7.6838  1.73e+00
   4.2803    1.8084    6.0187  1.72e+00
   3.8388    2.5263    2.0251 -3.58e-01
   4.6557    2.3595    9.4217  1.72e+00
   5.0654    1.2124    1.0427 -3.61e-01
   4.1193    1.5084    6.0790  1.72e+00
   4.5097    1.7735    6.7671  1.71e+00
   5.3375    1.9170    8.8414 -3.68e-01
   5.3163    1.4515    7.3219 -3.68e-01
   5.4529   -0.0664    7.6587 -3.69e-01
   4.3091    2.1208    6.3155  1.71e+00
   4.4858    1.2040    8.0713  1.71e+00
   4.0657    1.2878    8.2589  1.71e+00
   5.5171    0.7229   10.7222 -3.79e-01
   4.6855    1.0841    6.5676  1.70e+00
   4.1070    1.7020    5.8681  1.69e+00
   4.3957    2.0016    7.2885  1.69e+00
   5.5043   -0.6245    6.2703 -3.97e-01
   3.6986    2.8619    9.9799 -3.98e-01
   4.4365    2.3560    8.0760  1.68e+00
   4.4288    0.9526    6.4532  1.68e+00
   4.5154    1.5859    6.5837  1.68e+00
   4.1736    2.6473    7.7606  1.67e+00
   4.5201    3.4308    7.7986 -4.12e-01
   4.3380    1.6845    5.6789  1.66e+00
   4.0813    2.2175    6.7422  1.66e+00
   4.3640   -0.5395    2.3852 -4.19e-01
   3.9441   -0.5989    3.0140 -4.20e-01
   4.0860    2.2771    9.5786  1.66e+00
   4.2522   -0.2018    3.6545 -4.27e-01
   4.5368    2.1405    9.8273  1.65e+00
   4.2435    1.8294    9.1451  1.65e+00
   4.2828    2.6355    9.6058  1.64e+00
   4.5875    1.8386    6.4499  1.64e+00
   4.6739    0.9683    6.0955  1.63e+00
   4.2205    3.1491   12.1445 -4.46e-01
   4.8204    4.1354   10.5441 -4.48e-01
   4.1444    1.2015    6.7037  1.63e+00
   4.1503    0.9662    6.4146  1.62e+00
   4.2171    1.1724    6.8871  1.62e+00
   4.0794    1.2567    5.4265  1.62e+00
   4.7547    2.2820    3.2440 -4.65e-01
   3.7426    1.3055    1.8084 -4.65e-01
   4.4323    2.1911    7.7154  1.61e+00
   4.4402    1.6963   11.9937 -4.71e-01
   4.0864    1.2122    7.2691  1.60e+00
   4.4260    2.7419    8.9199  1.60e+00
   4.6074    2.1032    7.0028  1.60e+00
   4.5046    1.3522    9.2790  1.60e+00
   4.6297    2.6473    9.3022  1.60e+00
   4.3948    1.9874   12.2703 -4.81e-01
   4.5185    1.1561    8.7312  1.60e+00
   4.4240    1.7141    6.2917  1.60e+00
   4.3538    3.0692    8.7904  1.59e+00
   4.3749    2.2476    9.7975  1.59e+00
   4.0018    2.2900    7.6721  1.59e+00
   4.0677    1.5073    5.2432  1.59e+00
   4.2401    1.1549    7.4571  1.59e+00
   3.7708    2.3286    7.5706  1.59e+00
   4.2275    2.5817    9.7025  1.59e+00
   4.2625    2.1869    5.9159  1.58e+00
   4.3613    2.0902    9.6050  1.58e+00
   4.4586    0.9415    5.8556  1.58e+00
   4.3501    3.9501   11.6180 -4.99e-01
   4.2743    2.3354    6.5304  1.57e+00
   4.1712    0.9687    7.5085  1.57e+00
   4.4184    3.7845    9.8237 -5.11e-01
   4.6091    2.5658    9.6156  1.57e+00
   4.5888    2.3836    7.5630  1.57e+00
   4.4578    2.7980    8.6148  1.57e+00
   3.9077    2.0020    6.9368  1.56e+00
   5.6036   -0.0517    5.3589 -5.20e-01
   4.5805    1.9420    6.8496  1.56e+00
   4.2166    1.1305    5.4908  1.56e+00
   4.3862    0.7696    7.1467  1.56e+00
   5.5256    0.7254    5.8045 -5.23e-01
   4.6834    0.9260    6.8249  1.56e+00
   4.6075    1.8626    9.6998  1.56e+00
   4.6526    1.2470    8.8507  1.55e+00
   4.6536    0.8255    6.6930  1.55e+00
   4.6645    1.6188    6.1114  1.55e+00
   5.5084   -0.0333    0.4814 -5.31e-01
   4.2127    1.4435    8.8794  1.54e+00
   4.6387    0.9304    6.4359  1.54e+00
   5.3415    1.8670    0.7477 -5.38e-01
   4.4481    2.7823    8.4732  1.54e+00
   4.3604    1.2468    5.4241  1.54e+00
   3.9566    1.9410    6.6685  1.54e+00
   4.2857    3.4155    1.1187 -5.47e-01
   4.4429    0.8903    7.5376  1.53e+00
   4.5699    2.2019   10.1022  1.53e+00
   4.1321    1.5412    4.8722  1.53e+00
   3.8332    2.7465    8.3852  1.53e+00
   3.8843    2.7042    7.8739  1.53e+00
   3.9164    0.0084    0.8738 -5.56e-01
   4.4165    0.9274    6.1947  1.52e+00
   4.0626    2.4300    9.9731  1.52e+00
   3.8059    2.7558    7.6954  1.51e+00
   4.1355    1.7677    5.1284  1.51e+00
   4.5323   -0.7793    4.2630 -5.69e-01
   4.4636    2.0062   10.0751  1.51e+00
   4.1514    3.1006    8.1902  1.51e+00
   4.5026   -0.3945    9.3143 -5.74e-01
   4.4743    2.6594    8.4038  1.51e+00
   5.1204   -0.2500    5.0076 -5.75e-01
   4.4205   -0.9667    4.4955 -5.76e-01
   4.5242    0.7874    6.0597  1.50e+00
   3.8186    2.6155    8.6845  1.50e+00
   3.8750    2.7334    7.6333  1.50e+00
   4.0680    1.2450    5.0300  1.50e+00
   4.9668    1.5316    8.1693  1.49e+00
   4.3834    2.6019    5.4408 -5.86e-01
   4.8126    1.4194    8.8215  1.49e+00
   3.2207    2.5859    2.9841 -5.87e-01
   4.4898    0.8185    7.8935  1.49e+00
   5.2315   -0.1163    8.9219 -5.92e-01
   4.1118    3.0640    9.6899  1.48e+00
   3.8622    2.4670    6.6190  1.48e+00
   4.0010    1.6247    6.6522  1.48e+00
   3.8217    2.5614    7.4494  1.48e+00
   4.7683    1.3521    8.9138  1.48e+00
   4.8279    1.8028    9.1561  1.47e+00
   4.2104    2.8443    8.0484  1.47e+00
   4.9586    1.6522    8.3903  1.46e+00
   4.3932    2.0347    6.4307  1.46e+00
   3.9049    2.3033    6.4437  1.46e+00
   4.3723    2.5470    6.9906  1.46e+00
   3.9142    2.7515    7.2602  1.46e+00
   4.4199    1.6118    5.8779  1.45e+00
   4.6427    1.4229    9.6807  1.45e+00
   4.4543    2.7988   10.0240  1.45e+00
   4.0294    2.6271    8.9743  1.45e+00
   3.8089    1.6266    6.1389  1.45e+00
   4.8676    1.7909    9.3561  1.45e+00
   4.8308    1.1584    7.9747  1.45e+00
   4.3907    1.0472    9.1633  1.44e+00
   4.1794    1.3300    4.3979  1.44e+00
   4.0654    3.0533    9.8501  1.44e+00
   4.1831    1.6145    4.8184  1.44e+00
   3.8153    1.6683    6.0545  1.43e+00
   4.5469    0.9121    8.1899  1.43e+00
   3.8535    2.3493    8.9739  1.43e+00
   4.4754    1.8902   10.2851  1.43e+00
   3.9734    2.6543    7.1106  1.43e+00
   4.6360    0.6564    5.4664  1.42e+00
   4.5368    1.0970    5.1372  1.42e+00
   4.0961   -0.4952    1.8561 -6.59e-01
   4.6704    2.6343    7.9697  1.42e+00
   4.8721    1.5806    8.0864  1.41e+00
   4.4103    2.2407    7.1680  1.41e+00
   4.5299    1.8413    0.5631  1.41e+00
   4.4277    1.3813    5.2950  1.41e+00
   4.1990    1.5799    9.5362  1.41e+00
   4.1013    1.5287    4.3619  1.41e+00
   5.1633    1.7171    6.6792 -6.75e-01
   4.3702    2.0942    5.2360  1.40e+00
   4.2330    0.9877    8.3678  1.40e+00
   5.4266    1.8855   11.5257 -6.78e-01
   4.2426    4.9706    9.9271 -6.78e-01
   4.5016    0.8902    5.1777  1.40e+00
   3.8384    2.9582    8.4774  1.40e+00
   4.4916    1.7703    0.7318  1.40e+00
   5.5225   -0.3042    0.0911 -6.88e-01
   3.9850    4.8268   10.4971 -6.88e-01
   4.7373    1.4504    7.3706  1.39e+00
   4.6757    1.2282    4.9599  1.39e+00
   3.9463    3.0513    8.2202  1.39e+00
   3.9922    1.7212    8.0152  1.38e+00
   4.3219    2.9262   10.1181  1.38e+00
   4.9478    3.5537   12.2311 -6.99e-01
   4.3543    0.6721    6.1170  1.38e+00
   4.8411    1.9439    9.4111  1.38e+00
   4.8921   -0.7460    1.6035 -7.02e-01
   3.9806    1.7394    5.6245  1.38e+00
   3.9446    2.2009    9.0924  1.37e+00
   4.6898    2.3270   13.5084 -2.79e+00
   4.4617    2.5517    7.8331  1.37e+00
   4.5895    0.1116   10.8401 -7.11e-01
   4.1844    0.8123    5.6781  1.37e+00
   4.3804    1.3685    5.0634  1.37e+00
   4.9819    1.0555    7.1084  1.36e+00
   4.9263    1.3160    9.3889  1.36e+00
   4.6372    3.0292    9.2404  1.36e+00
   4.5054    1.7797    0.8452  1.36e+00
   4.3106    0.9902    4.0653  1.36e+00
   4.5143    2.4326    6.9831  1.35e+00
   4.0397    1.6167    5.3281  1.35e+00
   4.3446    1.0202    8.4960  1.35e+00
   4.4686    1.3976    0.3270  1.35e+00
   3.9252    2.4533    5.9413  1.35e+00
   4.6652    0.7255    4.8876  1.35e+00
   4.0732    2.2694   10.2442  1.35e+00
   4.5411    1.9386    0.1599  1.34e+00
   4.2861    2.9665    7.5753  1.34e+00
   3.3341    1.5779    8.4452 -7.39e-01
   4.2450    0.8678    5.1583  1.34e+00
   4.2384    3.2927    9.3280  1.33e+00
   4.3515    3.2554    9.1271  1.33e+00
   4.3997    1.0801    0.8613  1.33e+00
   3.7520    2.8829    7.6831  1.33e+00
   3.7995    2.1050    5.4163  1.33e+00
   4.1492    1.3297    9.2940  1.33e+00
   4.8250    0.8323    7.5941  1.33e+00
   4.6109    1.2390    4.5861  1.33e+00
   3.7762    1.3390    6.4841  1.32e+00
   4.0051    2.7922    6.6334  1.32e+00
   4.3164    3.2297    9.0615  1.32e+00
   4.6409    1.4962    4.8747  1.32e+00
   3.8154    1.3147    6.5735  1.32e+00
   4.8166    2.1566    9.7769  1.32e+00
   4.4068    2.6052   10.4115  1.32e+00
   4.3128    1.6652    4.3385  1.32e+00
   4.7716    0.7062    8.0155  1.32e+00
   3.7639    1.4181    6.8588  1.32e+00
   3.4974    1.1937    4.5409 -7.63e-01
   4.3268    1.6450    0.9484  1.32e+00
   4.7200    1.6499    7.5423  1.31e+00
   3.9036    2.3742    5.9167  1.31e+00
   4.1090    1.2599    3.8773  1.31e+00
   4.9231    0.7140    7.2318  1.31e+00
   3.7615    1.9989    8.9624  1.31e+00
   3.7856    2.3241    9.3205  1.31e+00
   3.9596    1.8631    8.3239  1.31e+00
   4.7350    1.4376    9.5686  1.31e+00
   4.3894    0.3176    6.5014  1.30e+00
   4.5015    1.0563    0.7318  1.30e+00
   4.6515    0.5337    6.1101  1.30e+00
   4.3951    1.7961   10.2598  1.30e+00
   5.5028    0.7571    5.2406 -7.82e-01
   4.2291    0.7824    4.7419  1.30e+00
   4.0862    1.5076    1.3778  1.30e+00
   3.1969    1.0714    2.9687 -7.84e-01
   3.7749    2.6910    9.4365  1.29e+00
   4.5531    1.0879    4.4668  1.29e+00
   4.2235    1.8802   12.0731 -7.90e-01
   3.2580    0.8812    2.5744 -7.90e-01
   4.3803    1.3253    4.6942  1.28e+00
   4.6155    1.0031    1.2993  1.28e+00
   3.9110    1.5471    5.5415  1.28e+00
   4.8290    2.1090    9.9344  1.28e+00
   4.6545    1.1924    9.5235  1.28e+00
   4.2648    0.8553    7.3634  1.28e+00
   4.9730    1.5398    7.0032  1.28e+00
   4.8415    2.2918    1.9958 -8.00e-01
   4.3967    0.3251    7.1392  1.28e+00
   5.3312   -0.5330    1.5812 -8.03e-01
   4.6941    1.6322    9.9563  1.27e+00
   4.2114    1.7698    1.3015  1.27e+00
   4.0070    1.6056    4.9712  1.27e+00
   4.7226    1.0761    6.6767  1.27e+00
   4.7415    1.1156    9.2940  1.27e+00
   4.3548    1.2528    1.0085  1.27e+00
   5.5596    1.6268   12.8448 -2.89e+00
   4.6709    2.5684    7.6032  1.26e+00
   4.6743    0.6124    5.5393  1.26e+00
   4.6689    3.0267    8.6398  1.26e+00
   4.4370    0.5759    7.2928  1.26e+00
   4.3513    1.9926    4.7893  1.26e+00
   2.5221    4.2973    5.7556 -2.90e+00
   4.6642    0.7392    8.8905  1.26e+00
   4.6818    1.3250    1.3497  1.25e+00
   3.8364    1.3645    5.2686  1.25e+00
   3.6326    4.0718    7.2229 -8.29e-01
   3.8194    1.7768    4.7676  1.25e+00
   4.7740    0.8481    6.6253  1.24e+00
   4.2658    3.3905    8.5163  1.24e+00
   4.9257    2.2211    9.3634  1.24e+00
   4.7909    1.4348    9.8157  1.24e+00
   3.7685    2.7348    6.3372  1.24e+00
   4.8295    1.5363    6.8566  1.24e+00
   3.2756    2.5616   10.5772 -8.41e-01
   4.9581    1.1055    6.4466  1.24e+00
   4.0816    3.6145   12.3414 -8.43e-01
   4.0468    1.3522    5.0070  1.23e+00
   4.0734    2.5007    6.3468  1.23e+00
