NLLOC "./loc/vinti.19950422.151958.grid0" "LOCATED" "Location completed."
SIGNATURE "Anthony Lomax - Geosciences Azur   NLLoc:v4.00.0 02May2005 16h33m44"
COMMENT "1995 Vintimiglia Sequence (NonLinLoc Sample Location)"
GRID  101 101 21  -50.000000 -50.000000 0.000000  1.000000 1.000000 1.000000 PROB_DENSITY
SEARCH OCTREE nInitial 400 nEvaluated 10008 smallestNodeSide 0.156250/0.156250/0.078125
HYPOCENTER  x 4.843750 y 4.843750 z 10.234375  OT 56.657636  ix -1 iy -1 iz -1
GEOGRAPHIC  OT 1995 04 22  15 19 56.657636  Lat 43.793584 Long 7.560187 Depth 10.234375
QUALITY  Pmax 3.391e-01 MFmin 0.424555 MFmax 8.461513 RMS 0.094933 Nphs 12 Gap 186 Dist 10.215761 Mamp -9.90 0 Mdur -9.90 0
VPVSRATIO  VpVsRatio 1.569e+00  Npair 3  Diff 1.070e+00
STATISTICS  ExpectX 4.8254e+00 Y 4.6307e+00 Z 9.2469e+00  CovXX 4.57e-01 XY -2.55e-01 XZ 9.16e-01 YY 1.59e+00 YZ 8.65e-01 ZZ 8.18e+00 EllAz1  254.1 Dip1  8.0 Len1  9.41e-01 Az2  163.4 Dip2  4.9 Len2  2.37e+00 Len3  5.44e+00
STAT_GEOG  ExpectLat 43.791667 Long 7.559957 Depth 9.246868
TRANSFORM  LAMBERT RefEllipsoid Clarke-1880  LatOrig 43.750000  LongOrig 7.500000  FirstStdParal 43.199300  SecondStdParal 44.996100  RotCW 0.000000
FOCALMECH  Hyp  43.793584 7.560187 10.234375 Mech  0.0 0.0 0.0 mf  0.00 nObs 0
PHASE ID Ins Cmp On Pha  FM Date     HrMn   Sec     Err  ErrMag    Coda      Amp       Per      >   TTpred    Res       Weight    StaLoc(X  Y         Z)        SDist    SAzim  RAz   RDip  RQual    Tcorr 
RONE   ?    ?    ? P      ? 19950422 1519   59.2800 GAU  1.00e-01 -1.00e+00 -1.00e+00 -1.00e+00 >    2.6887   -0.0663    1.0000    7.8887   14.5952   -0.3000   10.2158  17.34  17.3 129.9  9     0.0000
RONE   ?    ?    ? S      ? 19950422 1520    1.1200 GAU  1.00e-01 -1.00e+00 -1.00e+00 -1.00e+00 >    4.5170   -0.0547    1.0000    7.8887   14.5952   -0.3000   10.2158  17.34  17.3 129.9  9     0.0000
SBF    ?    ?    i p      d 19950422 1519   59.8800 GAU  1.00e-01 -1.00e+00 -1.00e+00 -1.00e+00 >    3.1342    0.0881    1.0000   -5.2384   12.6113   -0.8470   12.7273 307.61 307.6 123.0  9     0.0000
NEGI   ?    ?    ? P      ? 19950422 1519   59.8200 GAU  1.00e-01 -1.00e+00 -1.00e+00 -1.00e+00 >    3.1315   -0.0092    1.0000   16.3893   10.8705   -0.6400   13.0239  62.44  62.4 122.0  9     0.0400
NEGI   ?    ?    ? S      ? 19950422 1520    2.1100 GAU  1.00e-01 -1.00e+00 -1.00e+00 -1.00e+00 >    5.2610    0.1514    1.0000   16.3893   10.8705   -0.6400   13.0239  62.44  62.4 122.0  9     0.0400
REVF   ?    ?    P G      ? 19950422 1520    0.1700 GAU  1.00e-01 -1.00e+00 -1.00e+00 -1.00e+00 >    3.6584   -0.1461    1.0000  -10.6730   -1.1024   -0.7000   16.6170 249.03 249.0 115.2  9     0.0000
CEPP   ?    ?    ? P      ? 19950422 1520    0.9100 GAU  1.00e-01 -1.00e+00 -1.00e+00 -1.00e+00 >    4.2807   -0.0283    1.0000   19.7971   18.5085   -1.0800   20.2565  47.58  47.6 110.5  9     0.0000
CEPP   ?    ?    ? S      ? 19950422 1520    3.8200 GAU  1.00e-01 -1.00e+00 -1.00e+00 -1.00e+00 >    7.1916   -0.0292    1.0000   19.7971   18.5085   -1.0800   20.2565  47.58  47.6 110.5  9     0.0000
AURF   ?    ?    P G      ? 19950422 1520    1.2300 GAU  1.00e-01 -1.00e+00 -1.00e+00 -1.00e+00 >    4.4504    0.0820    1.0000  -13.8607   15.2716   -1.0400   21.4149 299.14 299.1 109.1  9     0.0400
AUTN   ?    ?    ? p      ? 19950422 1520    1.6800 GAU  1.00e-01 -1.00e+00 -1.00e+00 -1.00e+00 >    5.1820   -0.1596    1.0000   -5.8149   27.2765   -2.0690   24.8362 334.59 334.6 106.3  9     0.0000
MVIF   ?    ?    i p      d 19950422 1520    3.3700 GAU  1.00e-01 -1.00e+00 -1.00e+00 -1.00e+00 >    6.6290    0.0833    1.0000  -27.9180   16.3343   -1.4800   34.7183 289.33 289.3  98.2  9     0.0000
TOUF   ?    ?    i p      u 19950422 1520    3.4900 GAU  1.00e-01 -1.00e+00 -1.00e+00 -1.00e+00 >    6.7438    0.0885    1.0000  -20.1791   29.3046   -1.8500   34.9925 314.35 314.3  98.2  9     0.0000
0666   ?    ?    i p      u 19950422 1519   58.7200 GAU  1.00e-01 -1.00e+00 -1.00e+00 -1.00e+00 >    0.0000    0.0000    0.0000    0.0000    0.0000    0.0000    0.0000   0.00   0.0   0.0  0     0.0000
0665   ?    ?    i p      u 19950422 1519   58.7600 GAU  1.00e-01 -1.00e+00 -1.00e+00 -1.00e+00 >    0.0000    0.0000    0.0000    0.0000    0.0000    0.0000    0.0000   0.00   0.0   0.0  0     0.0000
0669   ?    ?    i p      u 19950422 1519   58.9800 GAU  1.00e-01 -1.00e+00 -1.00e+00 -1.00e+00 >    0.0000    0.0000    0.0000    0.0000    0.0000    0.0000    0.0000   0.00   0.0   0.0  0     0.0000
0667   ?    ?    e p      u 19950422 1519   59.7000 GAU  1.00e-01 -1.00e+00 -1.00e+00 -1.00e+00 >    0.0000    0.0000    0.0000    0.0000    0.0000    0.0000    0.0000   0.00   0.0   0.0  0     0.0000
.obs   ?    ?    i p      d 19950422 1519   60.2300 GAU  1.00e-01 -1.00e+00 -1.00e+00 -1.00e+00 >    0.0000    0.0000    0.0000    0.0000    0.0000    0.0000    0.0000   0.00   0.0   0.0  0     0.0000
CALN   ?    ?    i p      u 19950422 1519   66.5200 GAU  1.00e-01 -1.00e+00 -1.00e+00 -1.00e+00 >    0.0000    0.0000    0.0000    0.0000    0.0000    0.0000    0.0000   0.00   0.0   0.0  0     0.0000
FRF    ?    ?    ? G      ? 19950422 1520   10.3000 GAU  1.00e-01 -1.00e+00 -1.00e+00 -1.00e+00 >    0.0000    0.0000    0.0000    0.0000    0.0000    0.0000    0.0000   0.00   0.0   0.0  0     0.0000
LMR    ?    ?    ? G      ? 19950422 1520   13.4000 GAU  1.00e-01 -1.00e+00 -1.00e+00 -1.00e+00 >    0.0000    0.0000    0.0000    0.0000    0.0000    0.0000    0.0000   0.00   0.0   0.0  0     0.0000
LRG    ?    ?    ? G      ? 19950422 1520   14.8000 GAU  1.00e-01 -1.00e+00 -1.00e+00 -1.00e+00 >    0.0000    0.0000    0.0000    0.0000    0.0000    0.0000    0.0000   0.00   0.0   0.0  0     0.0000
END_PHASE
SCATTER Nsamples 992
   5.4951    2.0145   10.0664  2.15e+00
   4.7465    4.8632    9.3642  4.23e+00
   5.2729    4.2710   10.3569  4.23e+00
   4.7151    5.3695   10.4910  4.23e+00
   5.8157    3.1558   13.1812  2.14e+00
   4.4049    5.5714   10.0615  4.22e+00
   4.4628    5.5768    9.6938  4.21e+00
   4.8755    5.5603   10.2741  4.21e+00
   6.5311    2.1046   11.9470  4.66e-02
   5.0896    4.0864   10.1278  4.20e+00
   4.2695    6.9847   10.8702  2.12e+00
   4.8878    5.5701   10.8258  4.20e+00
   4.2860    5.5969    0.4778  2.12e+00
   4.4818    4.6119    9.8962  4.19e+00
   4.9687    4.3083    9.0359  4.17e+00
   5.2505    4.5287    9.9502  4.17e+00
   4.6662    4.7674   10.4380  4.17e+00
   4.5500    5.2669   10.5176  4.17e+00
   5.2609    6.4325   10.6244  2.09e+00
   4.9215    4.2137   10.5387  4.17e+00
   5.1592    4.7773   11.3526  4.17e+00
   4.4269    3.6295    1.0971  2.08e+00
   4.0436    3.7217    4.4226  2.08e+00
   5.0397    5.2657   10.8125  4.16e+00
   4.3892    4.8248    8.6745  4.16e+00
   4.6282    5.3231    9.4295  4.16e+00
   4.9888    5.2686    9.4411  4.16e+00
   4.5969    3.0874    5.2541  2.07e+00
   5.0915    4.1754   10.9770  4.15e+00
   4.8800    4.3783   11.0398  4.15e+00
   5.9785    1.8433    0.2159 -1.48e-02
   5.1825    4.8470   10.0940  4.14e+00
   5.3112    4.1349    9.7612  4.14e+00
   5.2702    4.3891   11.3926  4.14e+00
   4.7567    5.6202    9.9619  4.13e+00
   4.4345    4.6219    8.5269  4.13e+00
   4.2785    5.1775   11.5700  2.05e+00
   4.4641    4.2635    9.1230  4.13e+00
   5.1418    5.0119   10.5224  4.13e+00
   4.6451    4.2400    9.0437  4.13e+00
   4.8197    4.2759    8.8143  4.12e+00
   4.9274    4.0043    9.8234  4.12e+00
   4.2941    1.9446    1.8375 -4.18e-02
   5.2438    3.9082   10.3026  4.11e+00
   5.2993    4.8997   11.4320  4.11e+00
   5.2457    5.2571   11.4025  4.11e+00
   4.7700    5.4546   11.2316  4.11e+00
   4.6488    5.3125    8.7512  4.11e+00
   4.5869    4.1380    8.8330  4.11e+00
   5.0504    3.8506   10.0379  4.11e+00
   4.6656    4.2937    9.4591  4.10e+00
   4.7196    3.9719    9.1937  4.10e+00
   4.4044    4.7403    8.4408  4.10e+00
   5.1313    3.1715   12.9619  2.02e+00
   6.3784    2.0886   11.4744 -6.29e-02
   5.1935    4.3397   11.1304  4.10e+00
   5.0036    3.9586    9.8881  4.10e+00
   4.9021    4.7234    8.9560  4.09e+00
   5.5328    2.4070    7.5080  2.01e+00
   6.0677    2.4915   10.3529  2.00e+00
   4.6605    4.6451    8.4225  4.08e+00
   4.6922    4.0189    9.0087  4.08e+00
   4.9510    3.9210   10.0928  4.07e+00
   5.2223    5.1747   11.5364  4.07e+00
   5.3067    3.9447   10.7115  4.07e+00
   6.0720    3.9331    9.5814  1.99e+00
   4.4504    5.6993   10.2980  4.06e+00
   4.8953    4.5388   11.1585  4.06e+00
   5.0275    4.5134    9.6512  4.06e+00
   3.3370    5.0285    8.2489  1.98e+00
   4.2340    6.6806   11.8661  1.98e+00
   4.3903    5.8645    9.8900  4.05e+00
   4.9049    5.6244   11.2616  4.05e+00
   4.4680    5.8992   10.3692  4.05e+00
   4.5936    5.3078    8.6597  4.05e+00
   5.3509    6.5093   13.1260  1.97e+00
   4.7588    4.5489    8.7425  4.04e+00
   5.0825    5.1680   10.2104  4.04e+00
   4.5694    4.7999   10.6970  4.04e+00
   5.1220    4.2772    9.5258  4.04e+00
   4.8149    5.7647   10.7321  4.04e+00
   4.7612    5.6564   10.5879  4.03e+00
   6.1144    5.6690   12.1770  1.95e+00
   3.9070    4.5168    1.4255  1.95e+00
   4.5280    4.2166    8.4035  4.03e+00
   4.4924    5.5381   10.8463  4.02e+00
   4.6184    5.7488   10.4973  4.02e+00
   4.7462    5.0077   11.5149  4.02e+00
   5.0644    4.8803    9.7426  4.02e+00
   4.8933    5.3601    9.5580  4.02e+00
   4.8807    5.7654   10.4005  4.02e+00
   4.7869    4.7829    8.8281  4.01e+00
   4.2312    5.2636    9.1215  4.01e+00
   5.2119    3.7510    9.4525  4.00e+00
   4.7682    5.1980    9.1989  4.00e+00
   4.7100    5.7803   10.9715  4.00e+00
   4.2012    5.0075    8.9868  4.00e+00
   4.7681    3.9040    8.6384  4.00e+00
   4.4826    5.5734    8.9652  4.00e+00
   5.2816    5.3501   11.0420  3.99e+00
   5.1856    4.4891   11.6462  3.99e+00
   4.1767    4.7656    8.9360  3.99e+00
   5.1876    4.0139   11.0174  3.98e+00
   5.1938    5.5539   10.8559  3.98e+00
   5.1014    4.9989    7.6568  1.90e+00
   4.2216    4.9134    8.7584  3.98e+00
   4.1983    4.1720    1.6042  1.90e+00
   4.8213    4.1735   10.9840  3.98e+00
   4.9356    5.3971   11.4604  3.97e+00
   4.5777    4.9906    8.1658  3.97e+00
   5.7743    2.4520    9.8929  1.89e+00
   4.9368    5.7531   11.1651  3.97e+00
   4.1427    4.9167    8.5965  3.97e+00
   4.8682    4.4443    5.6163  1.88e+00
   4.0861    5.5524    1.4091 -2.02e-01
   4.0805    5.5421    9.2354  3.96e+00
   5.1948    4.3289   11.5209  3.96e+00
   4.2574    5.4910    9.4132  3.96e+00
   5.6184    4.2627   10.8528  3.95e+00
   5.4645    4.4790   11.3405  3.95e+00
   4.5538    5.3725   11.0434  3.95e+00
   4.3010    5.5131    9.0823  3.95e+00
   4.0715    4.7266    8.5188  3.95e+00
   4.2341    5.3697    9.6737  3.95e+00
   4.5311    5.6581    9.5053  3.94e+00
   3.7020    5.1098    6.4323  1.86e+00
   5.3038    5.2718   11.7549  3.94e+00
   4.7502    5.3538    9.5225  3.94e+00
   5.4432    4.2560   10.7396  3.94e+00
   4.4813    5.6859   10.8555  3.93e+00
   4.3164    3.8677    3.0771  1.85e+00
   5.4955    4.4851   11.5191  3.93e+00
   5.0602    5.3565   10.4827  3.93e+00
   3.8006    7.2373    8.9264  1.84e+00
   4.9559    5.2166   11.6904  3.92e+00
   4.1252    4.8060    8.3342  3.92e+00
   6.0977    3.0731   12.9045  1.84e+00
   5.3017    3.5656    9.6940  3.92e+00
   5.2870    3.5307   10.3011  3.92e+00
   4.5027    3.7806    8.6388  3.91e+00
   4.7440    5.3038    9.0036  3.91e+00
   5.1832    5.0205    9.8940  3.91e+00
   5.1081    4.4407    9.3401  3.91e+00
   5.1524    4.6310   11.8386  3.90e+00
   4.5916    5.0856    8.3298  3.90e+00
   5.0590    3.6425   10.4071  3.90e+00
   4.6535    4.4466    7.9491  3.90e+00
   4.2100    5.3598    9.8907  3.89e+00
   4.6733    3.9484    9.3010  3.89e+00
   5.5177    4.0590   10.8805  3.89e+00
   4.2540    4.7925    9.6660  3.89e+00
   4.5720    3.9307    4.6298  1.81e+00
   5.5230    4.0369   10.6590  3.89e+00
   4.7807    5.3364   11.6323  3.88e+00
   4.8399    3.5969    9.5854  3.88e+00
   4.8967    6.0811    7.2163  1.80e+00
   4.9261    5.7786    9.8993  3.88e+00
   4.2670    5.1794    8.3448  3.88e+00
   4.0830    4.6108    8.8861  3.88e+00
   4.9303    3.9213   10.6283  3.88e+00
   4.6106    3.8022    8.3574  3.88e+00
   5.3100    5.1393   13.8637  1.79e+00
   4.2650    4.5687    8.5892  3.87e+00
   4.8145    2.5088    0.8067  1.79e+00
   5.5206    4.2882   10.3485  3.87e+00
   5.1001    3.6215   10.6176  3.87e+00
   5.0205    4.2902   11.6930  3.87e+00
   3.8502    5.3395    4.9162  1.79e+00
   4.9143    2.0758    7.6196  1.79e+00
   5.0096    4.7476   11.8953  3.87e+00
   4.8039    3.7397    8.8949  3.86e+00
   5.4626    3.8572   11.2250  3.86e+00
   4.6735    5.6713   11.0623  3.86e+00
   4.7476    4.4787   11.5557  3.86e+00
   4.4404    4.9318   10.9682  3.86e+00
   4.6370    3.7925    9.4323  3.86e+00
   2.8019    5.6673    1.6369 -2.98e-01
   4.3382    3.4829    1.4302  1.78e+00
   5.5292    4.7673   11.6139  3.86e+00
   4.9204    2.4355    7.9696  1.78e+00
   5.1153    5.2181   12.0203  3.85e+00
   4.1447    3.3714    3.3431  1.77e+00
   3.6099    4.9698    7.4816  1.77e+00
   4.1783    4.5933    9.0876  3.85e+00
   4.5806    5.1125   11.1496  3.85e+00
   5.4147    3.7744   10.4117  3.85e+00
   4.2575    4.9269    8.1088  3.84e+00
   5.4478    4.5695   11.7622  3.84e+00
   4.5191    6.1943   10.2371  3.84e+00
   4.4034    6.0328   10.4351  3.84e+00
   3.7954    5.7233   11.9632  1.76e+00
   4.2645    4.5307    8.1550  3.84e+00
   5.3897    3.9140   11.3811  3.83e+00
   5.4499    1.9737    7.0947  1.75e+00
   5.1197    3.5248   10.7560  3.83e+00
   3.6099    4.6894    6.3335  1.75e+00
   4.1513    5.3017   10.0787  3.83e+00
   4.7873    3.9076    8.2377  3.83e+00
   2.6259    6.1994    2.9259 -3.29e-01
   4.6513    4.1747    7.7911  3.83e+00
   5.2846    3.3686    6.3243  1.75e+00
   4.5754    6.2007   10.5759  3.83e+00
   5.0801    4.0430    9.0156  3.83e+00
   4.8018    3.6704    9.9955  3.83e+00
   3.7547    3.2274    0.8257  1.74e+00
   5.4205    4.3129   10.2056  3.82e+00
   5.3779    4.9277   11.7542  3.82e+00
   4.9481    5.0873    8.8456  3.82e+00
   4.0670    5.7497    9.2859  3.82e+00
   3.3206    4.5436    7.7749  1.74e+00
   6.0964    4.7113    9.8350  1.74e+00
   3.9749    7.0694   11.3005  1.73e+00
   4.0733    5.6584    9.9464  3.81e+00
   5.5879    3.8532   10.2780  3.81e+00
   4.9338    3.7677   10.8797  3.81e+00
   4.2020    5.3708    8.5025  3.80e+00
   4.8803    2.7226    0.2124  1.72e+00
   4.3878    6.0368    9.8447  3.80e+00
   4.4494    6.0655   10.6940  3.80e+00
   5.1100    4.5703   11.9636  3.80e+00
   4.8807    2.5035    4.3177  1.72e+00
   4.5341    2.4381    6.7777  1.72e+00
   4.1338    5.7834    9.1933  3.79e+00
   4.6758    4.6660   10.7875  3.79e+00
   4.0557    2.3894    0.8545 -3.72e-01
   5.2916    3.4906   10.7854  3.79e+00
   4.8482    4.3140   11.2874  3.78e+00
   4.2395    3.6442    2.9169  1.70e+00
   5.5462    4.4324   11.9897  3.78e+00
   4.7236    5.9698   10.9144  3.78e+00
   4.2714    5.0901    7.9820  3.77e+00
   4.6602    3.9251    9.8241  3.77e+00
   4.2871    3.6923    1.7241  1.69e+00
   4.9630    5.9599   10.6596  3.77e+00
   4.7120    4.0814    8.0532  3.77e+00
   5.0995    4.3268   11.7443  3.77e+00
   4.4945    4.2731    7.6028  3.77e+00
   5.2332    5.7846   11.1472  3.77e+00
   5.1436    5.4751   12.0110  3.76e+00
   4.6283    5.5324    8.5595  3.76e+00
   5.4128    7.3775   12.1418  1.68e+00
   5.0784    4.7980   12.1548  3.76e+00
   4.8354    6.0465   10.5271  3.75e+00
   5.2784    5.8727   11.0814  3.75e+00
   5.5159    5.2759   11.5213  3.75e+00
   4.2393    5.4224    8.3095  3.75e+00
   5.1073    3.6514    8.9770  3.75e+00
   5.1128    5.7600   11.5586  3.75e+00
   4.2789    4.9286    7.7802  3.74e+00
   4.8113    3.6095   10.2092  3.74e+00
   5.2647    5.7351   13.8731  1.66e+00
   3.9318    5.1471    0.9473  1.66e+00
   4.2618    5.4091    3.4835 -4.19e-01
   4.5034    5.7353    8.9966  3.74e+00
   5.9433    2.4621    9.2886  1.66e+00
   5.3738    3.9309   11.5719  3.73e+00
   4.3635    5.4268   10.4574  3.73e+00
   5.0549    5.7873   10.8063  3.73e+00
   4.3928    6.8444    8.1982  1.65e+00
   4.4733    4.8089    7.7636  3.73e+00
   2.8107    5.4712    2.1638 -4.38e-01
   4.4352    3.9594    9.8769  3.72e+00
   5.4867    5.2231   11.7643  3.71e+00
   4.2446    5.6682    8.7992  3.71e+00
   5.1429    6.3359   13.5768  1.63e+00
   5.3421    3.2500    0.1845  1.63e+00
   5.3354    4.6198   12.0607  3.70e+00
   6.7356    3.6886   12.8462  1.62e+00
   5.5661    5.2080   11.0612  3.70e+00
   4.2124    5.2334   10.3606  3.69e+00
   5.4040    4.3249    9.9236  3.69e+00
   4.4760    4.5055   11.0032  3.69e+00
   4.6396    5.8674   11.2746  3.69e+00
   4.7046    8.0855   13.0651 -4.72e-01
   5.3520    3.7090   10.0726  3.68e+00
   4.9370    2.1545    5.9402  1.60e+00
   4.0788    4.2422    7.9838  3.68e+00
   4.9809    5.0477   11.9289  3.68e+00
   4.7187    5.7537   11.8042  3.68e+00
   4.9381    6.0445   10.1867  3.68e+00
   5.4567    4.7191   10.3416  3.67e+00
   5.4587    4.5972   10.1066  3.67e+00
   5.5173    4.1196    6.8594  1.59e+00
   5.2750    4.0456   11.7047  3.67e+00
   4.5806    4.4790    7.3570  3.67e+00
   4.3650    4.4024    9.7959  3.67e+00
   4.8843    4.3493   11.4466  3.67e+00
   5.2241    5.7109   11.7459  3.66e+00
   5.0719    3.2201    9.9660  3.66e+00
   4.2103    5.7801    8.6331  3.65e+00
   4.8488    3.6426    7.9863  3.65e+00
   4.5688    3.8385   10.1385  3.65e+00
   4.7637    6.1560   11.4587  3.65e+00
   3.2924    6.3431    8.8951  1.56e+00
   4.2762    6.0537    9.7440  3.64e+00
   4.4138    3.5026    8.6352  3.64e+00
   5.2221    5.1962   12.1987  3.64e+00
   4.1306    5.9983    9.8959  3.64e+00
   4.5857    3.4491    8.7684  3.64e+00
   4.5439    3.6746    8.4366  3.63e+00
   5.3112    4.6936   12.2033  3.63e+00
   4.5824    5.9566   11.2325  3.63e+00
   5.6064    4.1784   12.1062  3.63e+00
   5.1079    3.3092   10.1822  3.63e+00
   5.8980    5.3745   14.2070  1.55e+00
   4.4099    4.2534    7.3420  3.63e+00
   3.8879    3.1082    5.9409  1.54e+00
   4.5525    5.3005    7.9017  3.62e+00
   4.7851    4.8337    8.2726  3.62e+00
   4.8201    5.9789   10.1035  3.61e+00
   5.0192    4.4642    8.8642  3.61e+00
   5.0512    6.9090   11.4148  1.53e+00
   4.9722    5.1768    8.5794  3.61e+00
   4.8191    3.1842    9.1405  3.60e+00
   5.9128    6.0082   14.0040  1.52e+00
   4.2838    4.3141    7.6290  3.60e+00
   4.8678    3.2291    8.8565  3.60e+00
   4.1533    6.0189   10.2455  3.60e+00
   6.2816    3.3750   13.1382  1.52e+00
   7.3013    4.4491   15.3966 -5.65e-01
   5.5532    3.5231   11.4895  3.59e+00
   3.9821    2.7504    7.4076  1.51e+00
   5.5833    4.6081    9.9315  3.59e+00
   4.6079    4.0392   10.2148  3.58e+00
   4.5223    4.5939    7.2799  3.58e+00
   4.4896    5.8745   11.5071  3.58e+00
   6.5882    3.2325   11.6082  1.50e+00
   5.0251    3.3225    9.0586  3.57e+00
   5.2714    5.4306   12.2374  3.57e+00
   5.3164    3.8228    9.6071  3.57e+00
   5.0088    3.5086   11.2608  3.57e+00
   4.7563    3.7167    3.3963  1.49e+00
   4.4153    4.4204   11.2075  3.57e+00
   4.6788    6.0893    9.2365  3.57e+00
   4.2878    4.1195    7.4853  3.56e+00
   5.0630    3.3461   10.5145  3.56e+00
   4.5580    3.6999    1.8028  1.48e+00
   6.7604    2.5202   12.0401  1.48e+00
   4.9465    3.6405   10.7221  3.55e+00
   4.1168    6.2156    9.0784  3.54e+00
   5.0715    4.4296   12.2256  3.54e+00
   4.9866    6.1594    9.9673  3.54e+00
   4.5591    4.9575    7.3783  3.54e+00
   5.5423    3.6353    9.6782  3.54e+00
   3.5907    5.2022    9.4606  1.46e+00
   5.4665    4.9503   12.3637  3.53e+00
   5.4561    5.4729   11.3053  3.53e+00
   5.1521    4.7709    8.9382  3.52e+00
   4.2389    4.1944    7.2491  3.52e+00
   5.2333    3.1554   10.6570  3.52e+00
   4.7609    3.1637    9.8018  3.51e+00
   5.5182    5.4486   11.9955  3.51e+00
   4.9992    4.2658    7.5722  3.50e+00
   5.2000    5.7680   10.1578  3.50e+00
   4.5717    5.3968   11.5733  3.50e+00
   3.5413    6.8273    9.6859  1.42e+00
   4.3641    6.1401   10.5210  3.49e+00
